Model Marker Errors from IK
version=1
nRows=230
nColumns=4
inDegrees=no
endheader
time	total_squared_error	marker_error_RMS	marker_error_max
      0.00000000	      0.01347850	      0.01711756	      0.03687707
      0.01000000	      0.01421084	      0.01757644	      0.03716227
      0.02000000	      0.01485371	      0.01796961	      0.03720965
      0.03000000	      0.01540056	      0.01829740	      0.03774386
      0.04000000	      0.01590736	      0.01859603	      0.03782858
      0.05000000	      0.01624362	      0.01879154	      0.03792907
      0.06000000	      0.01624434	      0.01879196	      0.03818208
      0.07000000	      0.01621543	      0.01877523	      0.03877879
      0.08000000	      0.01630179	      0.01882516	      0.03884542
      0.09000000	      0.01646665	      0.01892011	      0.03916786
      0.10000000	      0.01630179	      0.01882516	      0.03918436
      0.11000000	      0.01604353	      0.01867545	      0.03871009
      0.12000000	      0.01579493	      0.01853019	      0.03887578
      0.13000000	      0.01569503	      0.01847150	      0.03861537
      0.14000000	      0.01578894	      0.01852668	      0.03816677
      0.15000000	      0.01598656	      0.01864226	      0.03813305
      0.16000000	      0.01602470	      0.01866448	      0.03761506
      0.17000000	      0.01610451	      0.01871091	      0.03743835
      0.18000000	      0.01618300	      0.01875645	      0.03759831
      0.19000000	      0.01625171	      0.01879622	      0.03798179
      0.20000000	      0.01605525	      0.01868227	      0.03816800
      0.21000000	      0.01580209	      0.01853439	      0.03823149
      0.22000000	      0.01563794	      0.01843787	      0.03832777
      0.23000000	      0.01530368	      0.01823976	      0.03772446
      0.24000000	      0.01517551	      0.01816322	      0.03766046
      0.25000000	      0.01489668	      0.01799558	      0.03718112
      0.26000000	      0.01453402	      0.01777518	      0.03646357
      0.27000000	      0.01417992	      0.01755731	      0.03525008
      0.28000000	      0.01384049	      0.01734590	      0.03490435
      0.29000000	      0.01358386	      0.01718434	      0.03539406
      0.30000000	      0.01307083	      0.01685670	      0.03530337
      0.31000000	      0.01256064	      0.01652445	      0.03510691
      0.32000000	      0.01201703	      0.01616291	      0.03534426
      0.33000000	      0.01152104	      0.01582585	      0.03564711
      0.34000000	      0.01110058	      0.01553438	      0.03572974
      0.35000000	      0.01080256	      0.01532443	      0.03574751
      0.36000000	      0.01064819	      0.01521454	      0.03575416
      0.37000000	      0.01060146	      0.01518113	      0.03577201
      0.38000000	      0.01076085	      0.01529482	      0.03567768
      0.39000000	      0.01092258	      0.01540933	      0.03589577
      0.40000000	      0.01113551	      0.01555880	      0.03566930
      0.41000000	      0.01137681	      0.01572648	      0.03567958
      0.42000000	      0.01150386	      0.01581404	      0.03555958
      0.43000000	      0.01158511	      0.01586979	      0.03551223
      0.44000000	      0.01167488	      0.01593116	      0.03534763
      0.45000000	      0.01161789	      0.01589223	      0.03497077
      0.46000000	      0.01172697	      0.01596666	      0.03499967
      0.47000000	      0.01172482	      0.01596520	      0.03447039
      0.48000000	      0.01175305	      0.01598440	      0.03465215
      0.49000000	      0.01188973	      0.01607708	      0.03448815
      0.50000000	      0.01205386	      0.01618766	      0.03468040
      0.51000000	      0.01233821	      0.01637748	      0.03458253
      0.52000000	      0.01281406	      0.01669031	      0.03445224
      0.53000000	      0.01322831	      0.01695795	      0.03459770
      0.54000000	      0.01348730	      0.01712315	      0.03514509
      0.55000000	      0.01372146	      0.01727115	      0.03592553
      0.56000000	      0.01398936	      0.01743894	      0.03669297
      0.57000000	      0.01433946	      0.01765581	      0.03773934
      0.58000000	      0.01450310	      0.01775626	      0.03810931
      0.59000000	      0.01464526	      0.01784307	      0.03847966
      0.60000000	      0.01467606	      0.01786183	      0.03904721
      0.61000000	      0.01471824	      0.01788747	      0.03952480
      0.62000000	      0.01472936	      0.01789423	      0.03971364
      0.63000000	      0.01488481	      0.01798841	      0.03962656
      0.64000000	      0.01505772	      0.01809259	      0.03998614
      0.65000000	      0.01515201	      0.01814914	      0.03979866
      0.66000000	      0.01529338	      0.01823361	      0.03941345
      0.67000000	      0.01540860	      0.01830218	      0.03921077
      0.68000000	      0.01560959	      0.01842116	      0.03887553
      0.69000000	      0.01570992	      0.01848026	      0.03843724
      0.70000000	      0.01593299	      0.01861100	      0.03793763
      0.71000000	      0.01614746	      0.01873584	      0.03754805
      0.72000000	      0.01628218	      0.01881384	      0.03696905
      0.73000000	      0.01637913	      0.01886977	      0.03664948
      0.74000000	      0.01625236	      0.01879660	      0.03616735
      0.75000000	      0.01608789	      0.01870125	      0.03602792
      0.76000000	      0.01594569	      0.01861842	      0.03586130
      0.77000000	      0.01581155	      0.01853994	      0.03536068
      0.78000000	      0.01559705	      0.01841375	      0.03516040
      0.79000000	      0.01539553	      0.01829441	      0.03516749
      0.80000000	      0.01500631	      0.01806168	      0.03458837
      0.81000000	      0.01478286	      0.01792670	      0.03508936
      0.82000000	      0.01449898	      0.01775374	      0.03510386
      0.83000000	      0.01413403	      0.01752888	      0.03481693
      0.84000000	      0.01380590	      0.01732421	      0.03534726
      0.85000000	      0.01336790	      0.01704718	      0.03535971
      0.86000000	      0.01302584	      0.01682767	      0.03528347
      0.87000000	      0.01273014	      0.01663557	      0.03556091
      0.88000000	      0.01223910	      0.01631157	      0.03571487
      0.89000000	      0.01178006	      0.01600276	      0.03568603
      0.90000000	      0.01131374	      0.01568282	      0.03573718
      0.91000000	      0.01083576	      0.01534796	      0.03569916
      0.92000000	      0.01051361	      0.01511810	      0.03559302
      0.93000000	      0.01018919	      0.01488301	      0.03559347
      0.94000000	      0.01002307	      0.01476120	      0.03576653
      0.95000000	      0.00986468	      0.01464410	      0.03542542
      0.96000000	      0.00992603	      0.01468957	      0.03538141
      0.97000000	      0.00999664	      0.01474172	      0.03543526
      0.98000000	      0.01006270	      0.01479034	      0.03538955
      0.99000000	      0.01016622	      0.01486623	      0.03559741
      1.00000000	      0.01033651	      0.01499022	      0.03525970
      1.01000000	      0.01084788	      0.01535654	      0.03545932
      1.02000000	      0.01137107	      0.01572251	      0.03602184
      1.03000000	      0.01190797	      0.01608940	      0.03610820
      1.04000000	      0.01259633	      0.01654791	      0.03644904
      1.05000000	      0.01325244	      0.01697341	      0.03667875
      1.06000000	      0.01383418	      0.01734195	      0.03704217
      1.07000000	      0.01438883	      0.01768617	      0.03683300
      1.08000000	      0.01500788	      0.01806262	      0.03723084
      1.09000000	      0.01545032	      0.01832693	      0.03712854
      1.10000000	      0.01579112	      0.01852796	      0.03727285
      1.11000000	      0.01593342	      0.01861125	      0.03722309
      1.12000000	      0.01596376	      0.01862896	      0.03748545
      1.13000000	      0.01588980	      0.01858576	      0.03744356
      1.14000000	      0.01598803	      0.01864312	      0.03719209
      1.15000000	      0.01598581	      0.01864182	      0.03716825
      1.16000000	      0.01598950	      0.01864397	      0.03722996
      1.17000000	      0.01587483	      0.01857700	      0.03677540
      1.18000000	      0.01593533	      0.01861237	      0.03713778
      1.19000000	      0.01614148	      0.01873237	      0.03706949
      1.20000000	      0.01635034	      0.01885317	      0.03660611
      1.21000000	      0.01636876	      0.01886379	      0.03675406
      1.22000000	      0.01644258	      0.01890628	      0.03722989
      1.23000000	      0.01634091	      0.01884773	      0.03727310
      1.24000000	      0.01625115	      0.01879590	      0.03696582
      1.25000000	      0.01610697	      0.01871234	      0.03656436
      1.26000000	      0.01583195	      0.01855189	      0.03638423
      1.27000000	      0.01555198	      0.01838713	      0.03606900
      1.28000000	      0.01537706	      0.01828343	      0.03585307
      1.29000000	      0.01498232	      0.01804723	      0.03600839
      1.30000000	      0.01461492	      0.01782458	      0.03587282
      1.31000000	      0.01446322	      0.01773183	      0.03584834
      1.32000000	      0.01427964	      0.01761894	      0.03545939
      1.33000000	      0.01389537	      0.01738026	      0.03559854
      1.34000000	      0.01395380	      0.01741676	      0.03582992
      1.35000000	      0.01357727	      0.01718016	      0.03564278
      1.36000000	      0.01375071	      0.01728955	      0.03608009
      1.37000000	      0.01358860	      0.01718733	      0.03602984
      1.38000000	      0.01315102	      0.01690833	      0.03622865
      1.39000000	      0.01292134	      0.01676003	      0.03634321
      1.40000000	      0.01260010	      0.01655038	      0.03646919
      1.41000000	      0.01244435	      0.01644778	      0.03684087
      1.42000000	      0.01170653	      0.01595274	      0.03635281
      1.43000000	      0.01124265	      0.01563347	      0.03662479
      1.44000000	      0.01102084	      0.01547848	      0.03647925
      1.45000000	      0.01074442	      0.01528314	      0.03638896
      1.46000000	      0.01063563	      0.01520557	      0.03603454
      1.47000000	      0.01069438	      0.01524751	      0.03584723
      1.48000000	      0.01069780	      0.01524995	      0.03572651
      1.49000000	      0.01091086	      0.01540106	      0.03557308
      1.50000000	      0.01098359	      0.01545230	      0.03544999
      1.51000000	      0.01095495	      0.01543215	      0.03532547
      1.52000000	      0.01090438	      0.01539649	      0.03531833
      1.53000000	      0.01104005	      0.01549197	      0.03557769
      1.54000000	      0.01100016	      0.01546396	      0.03520184
      1.55000000	      0.01117397	      0.01558564	      0.03521560
      1.56000000	      0.01153163	      0.01583312	      0.03566870
      1.57000000	      0.01181475	      0.01602630	      0.03593951
      1.58000000	      0.01236414	      0.01639468	      0.03618224
      1.59000000	      0.01277350	      0.01666388	      0.03581006
      1.60000000	      0.01303205	      0.01683168	      0.03589389
      1.61000000	      0.01323604	      0.01696290	      0.03579516
      1.62000000	      0.01377268	      0.01730336	      0.03606058
      1.63000000	      0.01414188	      0.01753374	      0.03636383
      1.64000000	      0.01438462	      0.01768358	      0.03737360
      1.65000000	      0.01448925	      0.01774778	      0.03759196
      1.66000000	      0.01486440	      0.01797607	      0.03879631
      1.67000000	      0.01506880	      0.01809924	      0.03972329
      1.68000000	      0.01563896	      0.01843848	      0.04102851
      1.69000000	      0.01619084	      0.01876099	      0.04121382
      1.70000000	      0.01677229	      0.01909489	      0.04192202
      1.71000000	      0.01737607	      0.01943555	      0.04269498
      1.72000000	      0.01766062	      0.01959404	      0.04253243
      1.73000000	      0.01780229	      0.01967247	      0.04223618
      1.74000000	      0.01801620	      0.01979032	      0.04215430
      1.75000000	      0.01804990	      0.01980881	      0.04192362
      1.76000000	      0.01817700	      0.01987844	      0.04127948
      1.77000000	      0.01817281	      0.01987614	      0.04091455
      1.78000000	      0.01814129	      0.01985890	      0.04004706
      1.79000000	      0.01807173	      0.01982079	      0.03893343
      1.80000000	      0.01818623	      0.01988348	      0.03882121
      1.81000000	      0.01787998	      0.01971536	      0.03882166
      1.82000000	      0.01776935	      0.01965427	      0.03860957
      1.83000000	      0.01737493	      0.01943492	      0.03815852
      1.84000000	      0.01708443	      0.01927176	      0.03766446
      1.85000000	      0.01676106	      0.01908850	      0.03659138
      1.86000000	      0.01635943	      0.01885841	      0.03679672
      1.87000000	      0.01600942	      0.01865559	      0.03604748
      1.88000000	      0.01571503	      0.01848327	      0.03595868
      1.89000000	      0.01544204	      0.01832202	      0.03614375
      1.90000000	      0.01518821	      0.01817081	      0.03607008
      1.91000000	      0.01496286	      0.01803551	      0.03627361
      1.92000000	      0.01467451	      0.01786088	      0.03612198
      1.93000000	      0.01457718	      0.01780155	      0.03641865
      1.94000000	      0.01443435	      0.01771412	      0.03682941
      1.95000000	      0.01412393	      0.01752261	      0.03696669
      1.96000000	      0.01377919	      0.01730744	      0.03698649
      1.97000000	      0.01338397	      0.01705743	      0.03717923
      1.98000000	      0.01296035	      0.01678531	      0.03701528
      1.99000000	      0.01250071	      0.01648498	      0.03736316
      2.00000000	      0.01221430	      0.01629504	      0.03740655
      2.01000000	      0.01199487	      0.01614800	      0.03730437
      2.02000000	      0.01183666	      0.01604116	      0.03739892
      2.03000000	      0.01190224	      0.01608553	      0.03735885
      2.04000000	      0.01198695	      0.01614267	      0.03723793
      2.05000000	      0.01201707	      0.01616294	      0.03692743
      2.06000000	      0.01198391	      0.01614062	      0.03705229
      2.07000000	      0.01186356	      0.01605937	      0.03633438
      2.08000000	      0.01185269	      0.01605201	      0.03656381
      2.09000000	      0.01182227	      0.01603140	      0.03630624
      2.10000000	      0.01196639	      0.01612883	      0.03640610
      2.11000000	      0.01234317	      0.01638077	      0.03660410
      2.12000000	      0.01301960	      0.01682364	      0.03707184
      2.13000000	      0.01407790	      0.01749404	      0.03748162
      2.14000000	      0.01570368	      0.01847659	      0.03778190
      2.15000000	      0.01744265	      0.01947275	      0.04607704
      2.16000000	      0.01976367	      0.02072788	      0.05907932
      2.17000000	      0.02271320	      0.02222083	      0.07313511
      2.18000000	      0.02587332	      0.02371631	      0.08865325
      2.19000000	      0.02963330	      0.02538114	      0.10516765
      2.20000000	      0.03423934	      0.02728247	      0.12268418
      2.21000000	      0.04030251	      0.02959969	      0.14110077
      2.22000000	      0.04717780	      0.03202506	      0.16070426
      2.23000000	      0.05546486	      0.03472402	      0.18125994
      2.24000000	      0.06524790	      0.03766208	      0.20256398
      2.25000000	      0.07608974	      0.04067093	      0.22418406
      2.26000000	      0.08814329	      0.04377395	      0.24635344
      2.27000000	      0.10189952	      0.04706599	      0.26900497
      2.28000000	      0.11738335	      0.05051546	      0.29223307
      2.29000000	      0.13470375	      0.05411416	      0.31632480
