Model Marker Errors from IK
version=1
nRows=258
nColumns=4
inDegrees=no
endheader
time	total_squared_error	marker_error_RMS	marker_error_max
      0.00000000	      0.01095624	      0.01543305	      0.03279401
      0.01000000	      0.01131305	      0.01568234	      0.03296412
      0.02000000	      0.01166939	      0.01592741	      0.03311678
      0.03000000	      0.01215326	      0.01625427	      0.03332836
      0.04000000	      0.01266019	      0.01658980	      0.03373644
      0.05000000	      0.01326656	      0.01698245	      0.03415226
      0.06000000	      0.01385794	      0.01735683	      0.03417877
      0.07000000	      0.01443695	      0.01771572	      0.03447274
      0.08000000	      0.01470353	      0.01787853	      0.03468082
      0.09000000	      0.01511205	      0.01812520	      0.03522344
      0.10000000	      0.01517228	      0.01816128	      0.03548401
      0.11000000	      0.01521999	      0.01818982	      0.03599000
      0.12000000	      0.01539294	      0.01829287	      0.03622107
      0.13000000	      0.01555352	      0.01838804	      0.03655593
      0.14000000	      0.01551642	      0.01836610	      0.03641608
      0.15000000	      0.01555521	      0.01838904	      0.03619991
      0.16000000	      0.01551412	      0.01836473	      0.03589093
      0.17000000	      0.01568977	      0.01846840	      0.03592145
      0.18000000	      0.01561733	      0.01842572	      0.03545632
      0.19000000	      0.01578293	      0.01852315	      0.03507721
      0.20000000	      0.01569697	      0.01847264	      0.03501318
      0.21000000	      0.01570156	      0.01847534	      0.03445799
      0.22000000	      0.01563053	      0.01843351	      0.03408812
      0.23000000	      0.01559623	      0.01841327	      0.03530806
      0.24000000	      0.01535753	      0.01827182	      0.03554149
      0.25000000	      0.01507361	      0.01810213	      0.03569736
      0.26000000	      0.01470858	      0.01788161	      0.03561444
      0.27000000	      0.01435975	      0.01766829	      0.03562753
      0.28000000	      0.01408251	      0.01749690	      0.03527927
      0.29000000	      0.01382984	      0.01733922	      0.03486640
      0.30000000	      0.01353233	      0.01715171	      0.03447689
      0.31000000	      0.01329439	      0.01700025	      0.03387681
      0.32000000	      0.01319038	      0.01693362	      0.03338274
      0.33000000	      0.01292303	      0.01676113	      0.03344733
      0.34000000	      0.01276788	      0.01666021	      0.03385804
      0.35000000	      0.01250164	      0.01648559	      0.03407502
      0.36000000	      0.01206317	      0.01619391	      0.03413575
      0.37000000	      0.01165646	      0.01591858	      0.03423140
      0.38000000	      0.01129808	      0.01567197	      0.03449692
      0.39000000	      0.01086272	      0.01536705	      0.03424783
      0.40000000	      0.01048274	      0.01509588	      0.03400390
      0.41000000	      0.01024426	      0.01492318	      0.03350884
      0.42000000	      0.01021120	      0.01489908	      0.03339633
      0.43000000	      0.01040456	      0.01503949	      0.03338568
      0.44000000	      0.01062262	      0.01519626	      0.03295645
      0.45000000	      0.01081546	      0.01533358	      0.03282564
      0.46000000	      0.01100981	      0.01547074	      0.03275459
      0.47000000	      0.01111851	      0.01554692	      0.03257805
      0.48000000	      0.01126009	      0.01564560	      0.03270920
      0.49000000	      0.01127214	      0.01565396	      0.03244043
      0.50000000	      0.01138641	      0.01573311	      0.03235341
      0.51000000	      0.01156204	      0.01585398	      0.03280917
      0.52000000	      0.01184547	      0.01604713	      0.03296537
      0.53000000	      0.01240919	      0.01642452	      0.03300156
      0.54000000	      0.01303493	      0.01683354	      0.03415966
      0.55000000	      0.01342949	      0.01708641	      0.03527849
      0.56000000	      0.01368596	      0.01724879	      0.03583787
      0.57000000	      0.01412230	      0.01752160	      0.03681065
      0.58000000	      0.01433255	      0.01765155	      0.03723950
      0.59000000	      0.01457699	      0.01780144	      0.03781083
      0.60000000	      0.01475200	      0.01790798	      0.03843743
      0.61000000	      0.01477667	      0.01792295	      0.03867004
      0.62000000	      0.01486773	      0.01797809	      0.03918261
      0.63000000	      0.01496542	      0.01803705	      0.03989650
      0.64000000	      0.01506849	      0.01809906	      0.03987599
      0.65000000	      0.01529818	      0.01823648	      0.03999805
      0.66000000	      0.01548370	      0.01834672	      0.03968121
      0.67000000	      0.01569663	      0.01847244	      0.03960880
      0.68000000	      0.01575577	      0.01850721	      0.03924661
      0.69000000	      0.01611765	      0.01871854	      0.03974929
      0.70000000	      0.01637824	      0.01886925	      0.03932879
      0.71000000	      0.01658925	      0.01899041	      0.03922518
      0.72000000	      0.01682061	      0.01912238	      0.03922762
      0.73000000	      0.01685213	      0.01914029	      0.03859933
      0.74000000	      0.01673037	      0.01907101	      0.03811154
      0.75000000	      0.01650553	      0.01894244	      0.03756408
      0.76000000	      0.01629789	      0.01882291	      0.03658093
      0.77000000	      0.01606701	      0.01868911	      0.03608111
      0.78000000	      0.01581069	      0.01853943	      0.03520092
      0.79000000	      0.01555963	      0.01839165	      0.03479610
      0.80000000	      0.01538212	      0.01828644	      0.03459265
      0.81000000	      0.01506657	      0.01809790	      0.03458649
      0.82000000	      0.01485923	      0.01797294	      0.03491378
      0.83000000	      0.01451885	      0.01776590	      0.03506942
      0.84000000	      0.01421107	      0.01757659	      0.03519455
      0.85000000	      0.01380007	      0.01732055	      0.03533620
      0.86000000	      0.01345684	      0.01710380	      0.03568331
      0.87000000	      0.01297451	      0.01679448	      0.03548782
      0.88000000	      0.01251406	      0.01649378	      0.03557357
      0.89000000	      0.01203583	      0.01617555	      0.03544275
      0.90000000	      0.01153117	      0.01583280	      0.03547092
      0.91000000	      0.01109993	      0.01553393	      0.03530249
      0.92000000	      0.01075261	      0.01528896	      0.03527249
      0.93000000	      0.01046725	      0.01508472	      0.03520922
      0.94000000	      0.01023685	      0.01491778	      0.03478317
      0.95000000	      0.01020121	      0.01489179	      0.03447615
      0.96000000	      0.01036566	      0.01501135	      0.03480370
      0.97000000	      0.01044815	      0.01507096	      0.03464107
      0.98000000	      0.01067298	      0.01523225	      0.03474717
      0.99000000	      0.01083266	      0.01534577	      0.03477147
      1.00000000	      0.01107762	      0.01551830	      0.03495157
      1.01000000	      0.01137933	      0.01572821	      0.03507710
      1.02000000	      0.01174349	      0.01597790	      0.03545547
      1.03000000	      0.01208954	      0.01621160	      0.03568094
      1.04000000	      0.01264016	      0.01657668	      0.03607550
      1.05000000	      0.01320551	      0.01694333	      0.03644703
      1.06000000	      0.01378447	      0.01731076	      0.03688740
      1.07000000	      0.01423696	      0.01759259	      0.03698857
      1.08000000	      0.01476613	      0.01791655	      0.03729394
      1.09000000	      0.01517328	      0.01816188	      0.03739610
      1.10000000	      0.01549670	      0.01835442	      0.03756546
      1.11000000	      0.01556848	      0.01839688	      0.03702032
      1.12000000	      0.01556212	      0.01839312	      0.03721231
      1.13000000	      0.01553636	      0.01837789	      0.03704448
      1.14000000	      0.01571817	      0.01848511	      0.03738050
      1.15000000	      0.01573375	      0.01849427	      0.03710405
      1.16000000	      0.01576507	      0.01851267	      0.03716526
      1.17000000	      0.01571806	      0.01848505	      0.03689896
      1.18000000	      0.01585097	      0.01856304	      0.03665315
      1.19000000	      0.01601397	      0.01865824	      0.03658308
      1.20000000	      0.01645272	      0.01891211	      0.03643363
      1.21000000	      0.01646507	      0.01891921	      0.03649887
      1.22000000	      0.01651946	      0.01895043	      0.03711208
      1.23000000	      0.01631016	      0.01882999	      0.03767906
      1.24000000	      0.01625356	      0.01879729	      0.03780182
      1.25000000	      0.01607429	      0.01869335	      0.03775525
      1.26000000	      0.01579319	      0.01852917	      0.03760005
      1.27000000	      0.01549389	      0.01835276	      0.03746257
      1.28000000	      0.01518675	      0.01816994	      0.03696721
      1.29000000	      0.01484117	      0.01796202	      0.03679218
      1.30000000	      0.01451476	      0.01776340	      0.03622669
      1.31000000	      0.01415654	      0.01754283	      0.03540583
      1.32000000	      0.01380329	      0.01732257	      0.03481109
      1.33000000	      0.01344311	      0.01709508	      0.03519391
      1.34000000	      0.01302119	      0.01682467	      0.03503046
      1.35000000	      0.01312656	      0.01689260	      0.03509166
      1.36000000	      0.01285303	      0.01671567	      0.03542976
      1.37000000	      0.01241790	      0.01643029	      0.03570092
      1.38000000	      0.01240573	      0.01642223	      0.03588274
      1.39000000	      0.01190860	      0.01608983	      0.03589224
      1.40000000	      0.01150821	      0.01581703	      0.03602704
      1.41000000	      0.01115354	      0.01557139	      0.03608442
      1.42000000	      0.01074670	      0.01528476	      0.03586544
      1.43000000	      0.01033105	      0.01498626	      0.03584757
      1.44000000	      0.01005588	      0.01478534	      0.03583729
      1.45000000	      0.00990836	      0.01467648	      0.03529668
      1.46000000	      0.00991187	      0.01467908	      0.03480218
      1.47000000	      0.00997185	      0.01472343	      0.03464290
      1.48000000	      0.01019342	      0.01488611	      0.03415819
      1.49000000	      0.01028163	      0.01495038	      0.03378480
      1.50000000	      0.01046112	      0.01508030	      0.03372899
      1.51000000	      0.01056485	      0.01515489	      0.03389010
      1.52000000	      0.01052323	      0.01512501	      0.03369969
      1.53000000	      0.01070410	      0.01525444	      0.03394161
      1.54000000	      0.01069306	      0.01524657	      0.03413070
      1.55000000	      0.01069413	      0.01524733	      0.03409621
      1.56000000	      0.01097086	      0.01544335	      0.03431621
      1.57000000	      0.01101686	      0.01547569	      0.03448240
      1.58000000	      0.01128409	      0.01566225	      0.03420979
      1.59000000	      0.01154848	      0.01584468	      0.03450404
      1.60000000	      0.01214502	      0.01624876	      0.03424257
      1.61000000	      0.01267597	      0.01660013	      0.03430924
      1.62000000	      0.01285693	      0.01671821	      0.03470917
      1.63000000	      0.01330368	      0.01700619	      0.03572292
      1.64000000	      0.01369237	      0.01725283	      0.03669727
      1.65000000	      0.01387976	      0.01737049	      0.03712600
      1.66000000	      0.01418191	      0.01755854	      0.03791635
      1.67000000	      0.01441614	      0.01770295	      0.03864733
      1.68000000	      0.01457110	      0.01779784	      0.03937514
      1.69000000	      0.01483739	      0.01795973	      0.04018390
      1.70000000	      0.01503947	      0.01808162	      0.04061144
      1.71000000	      0.01542883	      0.01831419	      0.04089532
      1.72000000	      0.01570426	      0.01847693	      0.04096672
      1.73000000	      0.01579091	      0.01852783	      0.04120451
      1.74000000	      0.01606375	      0.01868722	      0.04107715
      1.75000000	      0.01627277	      0.01880840	      0.04095871
      1.76000000	      0.01645011	      0.01891061	      0.04083311
      1.77000000	      0.01660316	      0.01899837	      0.04075013
      1.78000000	      0.01669099	      0.01904856	      0.04037918
      1.79000000	      0.01676869	      0.01909284	      0.04043851
      1.80000000	      0.01697220	      0.01920835	      0.03993505
      1.81000000	      0.01686730	      0.01914890	      0.03934924
      1.82000000	      0.01664506	      0.01902234	      0.03898409
      1.83000000	      0.01639628	      0.01887964	      0.03761718
      1.84000000	      0.01619218	      0.01876177	      0.03696719
      1.85000000	      0.01592647	      0.01860719	      0.03664302
      1.86000000	      0.01566698	      0.01845498	      0.03579129
      1.87000000	      0.01539359	      0.01829326	      0.03526142
      1.88000000	      0.01509164	      0.01811295	      0.03499948
      1.89000000	      0.01477888	      0.01792429	      0.03451289
      1.90000000	      0.01453584	      0.01777629	      0.03472983
      1.91000000	      0.01426533	      0.01761010	      0.03486103
      1.92000000	      0.01411809	      0.01751899	      0.03501862
      1.93000000	      0.01402950	      0.01746394	      0.03509927
      1.94000000	      0.01393498	      0.01740501	      0.03556349
      1.95000000	      0.01376355	      0.01729762	      0.03579998
      1.96000000	      0.01369474	      0.01725433	      0.03608476
      1.97000000	      0.01338319	      0.01705693	      0.03612298
      1.98000000	      0.01305635	      0.01684737	      0.03628138
      1.99000000	      0.01269660	      0.01661364	      0.03637710
      2.00000000	      0.01235062	      0.01638571	      0.03648412
      2.01000000	      0.01204841	      0.01618400	      0.03633962
      2.02000000	      0.01194857	      0.01611681	      0.03659389
      2.03000000	      0.01195470	      0.01612094	      0.03629738
      2.04000000	      0.01209415	      0.01621469	      0.03619457
      2.05000000	      0.01234880	      0.01638451	      0.03904598
      2.06000000	      0.01259447	      0.01654668	      0.04033525
      2.07000000	      0.01255943	      0.01652365	      0.03996431
      2.08000000	      0.01243287	      0.01644019	      0.03801623
      2.09000000	      0.01221082	      0.01629272	      0.03521381
      2.10000000	      0.01200871	      0.01615732	      0.03512366
      2.11000000	      0.01193677	      0.01610885	      0.03522353
      2.12000000	      0.01188841	      0.01607619	      0.03526631
      2.13000000	      0.01211626	      0.01622951	      0.03549422
      2.14000000	      0.01236884	      0.01639780	      0.03574015
      2.15000000	      0.01289329	      0.01674183	      0.03567132
      2.16000000	      0.01352180	      0.01714503	      0.03607539
      2.17000000	      0.01405481	      0.01747968	      0.03581086
      2.18000000	      0.01468488	      0.01786719	      0.03579592
      2.19000000	      0.01528106	      0.01822627	      0.03567755
      2.20000000	      0.01565410	      0.01844740	      0.03576581
      2.21000000	      0.01568935	      0.01846816	      0.03526204
      2.22000000	      0.01559427	      0.01841211	      0.03548731
      2.23000000	      0.01546947	      0.01833829	      0.03560479
      2.24000000	      0.01549924	      0.01835592	      0.03600114
      2.25000000	      0.01559712	      0.01841379	      0.03642632
      2.26000000	      0.01548445	      0.01834716	      0.03676811
      2.27000000	      0.01549415	      0.01835291	      0.03699339
      2.28000000	      0.01556690	      0.01839595	      0.03725129
      2.29000000	      0.01572916	      0.01849157	      0.03734097
      2.30000000	      0.01580875	      0.01853830	      0.03690355
      2.31000000	      0.01575929	      0.01850928	      0.03667748
      2.32000000	      0.01588995	      0.01858585	      0.03623800
      2.33000000	      0.01589444	      0.01858847	      0.03692850
      2.34000000	      0.01564755	      0.01844354	      0.03686879
      2.35000000	      0.01555787	      0.01839061	      0.03698073
      2.36000000	      0.01543346	      0.01831693	      0.03726543
      2.37000000	      0.01496120	      0.01803451	      0.03604480
      2.38000000	      0.01475335	      0.01790879	      0.03618106
      2.39000000	      0.01453995	      0.01777881	      0.03671855
      2.40000000	      0.01425875	      0.01760605	      0.03648665
      2.41000000	      0.01384147	      0.01734652	      0.03617110
      2.42000000	      0.01357217	      0.01717693	      0.03606638
      2.43000000	      0.01328537	      0.01699448	      0.03512229
      2.44000000	      0.01297164	      0.01679262	      0.03439798
      2.45000000	      0.01265151	      0.01658411	      0.03457168
      2.46000000	      0.01243313	      0.01644036	      0.03359636
      2.47000000	      0.01222818	      0.01630430	      0.03342948
      2.48000000	      0.01198808	      0.01614343	      0.03327435
      2.49000000	      0.01172111	      0.01596267	      0.03365136
      2.50000000	      0.01143396	      0.01576592	      0.03376995
      2.51000000	      0.01113641	      0.01555943	      0.03387216
      2.52000000	      0.01086806	      0.01537082	      0.03426542
      2.53000000	      0.01080491	      0.01532610	      0.03452186
      2.54000000	      0.01022631	      0.01491010	      0.03417677
      2.55000000	      0.01004195	      0.01477509	      0.03430081
      2.56000000	      0.00985478	      0.01463675	      0.03394359
      2.57000000	      0.00985237	      0.01463496	      0.03345656
