Model Marker Errors from IK
version=1
nRows=251
nColumns=4
inDegrees=no
endheader
time	total_squared_error	marker_error_RMS	marker_error_max
      0.00000000	      0.01417004	      0.01755119	      0.03817134
      0.01000000	      0.01473715	      0.01789896	      0.03845601
      0.02000000	      0.01522776	      0.01819445	      0.03866592
      0.03000000	      0.01570696	      0.01847852	      0.03873077
      0.04000000	      0.01611531	      0.01871718	      0.03912691
      0.05000000	      0.01634096	      0.01884776	      0.03917221
      0.06000000	      0.01667392	      0.01903881	      0.03949198
      0.07000000	      0.01689986	      0.01916737	      0.03950345
      0.08000000	      0.01724060	      0.01935964	      0.03959413
      0.09000000	      0.01726434	      0.01937296	      0.03956181
      0.10000000	      0.01712343	      0.01929374	      0.03943688
      0.11000000	      0.01705848	      0.01925711	      0.03916528
      0.12000000	      0.01688371	      0.01915821	      0.03874052
      0.13000000	      0.01687912	      0.01915561	      0.03834910
      0.14000000	      0.01687822	      0.01915510	      0.03809039
      0.15000000	      0.01685848	      0.01914389	      0.03784104
      0.16000000	      0.01677259	      0.01909507	      0.03821407
      0.17000000	      0.01680292	      0.01911232	      0.03912241
      0.18000000	      0.01677833	      0.01909833	      0.03972159
      0.19000000	      0.01669177	      0.01904901	      0.04065275
      0.20000000	      0.01644580	      0.01890813	      0.04057920
      0.21000000	      0.01620488	      0.01876913	      0.04062437
      0.22000000	      0.01574307	      0.01849975	      0.03998063
      0.23000000	      0.01533049	      0.01825573	      0.03945869
      0.24000000	      0.01497457	      0.01804256	      0.03810830
      0.25000000	      0.01446597	      0.01773352	      0.03668296
      0.26000000	      0.01398100	      0.01743372	      0.03555756
      0.27000000	      0.01364963	      0.01722589	      0.03582316
      0.28000000	      0.01334720	      0.01703398	      0.03580322
      0.29000000	      0.01307391	      0.01685869	      0.03623703
      0.30000000	      0.01276628	      0.01665916	      0.03636913
      0.31000000	      0.01252033	      0.01649791	      0.03636379
      0.32000000	      0.01219341	      0.01628109	      0.03650892
      0.33000000	      0.01180965	      0.01602284	      0.03646001
      0.34000000	      0.01138819	      0.01573433	      0.03644095
      0.35000000	      0.01095308	      0.01543083	      0.03623424
      0.36000000	      0.01066660	      0.01522769	      0.03614710
      0.37000000	      0.01048130	      0.01509484	      0.03601938
      0.38000000	      0.01032202	      0.01497971	      0.03575833
      0.39000000	      0.01024927	      0.01492683	      0.03592218
      0.40000000	      0.01036073	      0.01500777	      0.03592306
      0.41000000	      0.01048075	      0.01509445	      0.03599497
      0.42000000	      0.01067427	      0.01523317	      0.03612614
      0.43000000	      0.01080363	      0.01532519	      0.03614325
      0.44000000	      0.01088647	      0.01538383	      0.03614331
      0.45000000	      0.01098201	      0.01545119	      0.03620541
      0.46000000	      0.01116287	      0.01557790	      0.03635292
      0.47000000	      0.01154756	      0.01584405	      0.03660654
      0.48000000	      0.01179404	      0.01601225	      0.03677837
      0.49000000	      0.01209489	      0.01621519	      0.03674499
      0.50000000	      0.01257299	      0.01653257	      0.03690864
      0.51000000	      0.01290057	      0.01674656	      0.03699696
      0.52000000	      0.01316057	      0.01691447	      0.03727224
      0.53000000	      0.01358571	      0.01718550	      0.03745790
      0.54000000	      0.01415873	      0.01754419	      0.03765824
      0.55000000	      0.01458614	      0.01780702	      0.03765580
      0.56000000	      0.01495310	      0.01802962	      0.03747655
      0.57000000	      0.01523045	      0.01819606	      0.03779971
      0.58000000	      0.01533941	      0.01826104	      0.03860065
      0.59000000	      0.01529641	      0.01823542	      0.03954498
      0.60000000	      0.01539731	      0.01829547	      0.04034306
      0.61000000	      0.01554229	      0.01838140	      0.04113406
      0.62000000	      0.01581837	      0.01854394	      0.04133426
      0.63000000	      0.01598149	      0.01863931	      0.04155643
      0.64000000	      0.01637433	      0.01886700	      0.04132965
      0.65000000	      0.01669515	      0.01905093	      0.04108976
      0.66000000	      0.01692314	      0.01918057	      0.04063416
      0.67000000	      0.01741943	      0.01945979	      0.04060507
      0.68000000	      0.01773652	      0.01963610	      0.04015351
      0.69000000	      0.01797991	      0.01977037	      0.03963291
      0.70000000	      0.01817081	      0.01987505	      0.03954590
      0.71000000	      0.01811557	      0.01984481	      0.03913181
      0.72000000	      0.01783993	      0.01969326	      0.03877017
      0.73000000	      0.01758713	      0.01955323	      0.03845720
      0.74000000	      0.01714505	      0.01930592	      0.03755665
      0.75000000	      0.01672188	      0.01906618	      0.03728581
      0.76000000	      0.01628877	      0.01881765	      0.03700283
      0.77000000	      0.01579258	      0.01852881	      0.03683182
      0.78000000	      0.01539941	      0.01829671	      0.03687630
      0.79000000	      0.01499944	      0.01805754	      0.03671927
      0.80000000	      0.01464984	      0.01784586	      0.03666897
      0.81000000	      0.01438296	      0.01768256	      0.03661168
      0.82000000	      0.01409126	      0.01750233	      0.03675014
      0.83000000	      0.01390946	      0.01738906	      0.03687170
      0.84000000	      0.01366643	      0.01723648	      0.03702136
      0.85000000	      0.01338115	      0.01705563	      0.03713718
      0.86000000	      0.01299074	      0.01680498	      0.03743908
      0.87000000	      0.01251582	      0.01649494	      0.03733498
      0.88000000	      0.01208986	      0.01621182	      0.03755454
      0.89000000	      0.01160471	      0.01588321	      0.03736786
      0.90000000	      0.01126623	      0.01564986	      0.03700412
      0.91000000	      0.01091415	      0.01540338	      0.03739811
      0.92000000	      0.01053017	      0.01512999	      0.03702653
      0.93000000	      0.01056128	      0.01515233	      0.03699097
      0.94000000	      0.01071432	      0.01526172	      0.03682713
      0.95000000	      0.01084374	      0.01535361	      0.03685810
      0.96000000	      0.01093127	      0.01541546	      0.03681219
      0.97000000	      0.01103674	      0.01548965	      0.03665728
      0.98000000	      0.01103100	      0.01548562	      0.03653378
      0.99000000	      0.01119800	      0.01560240	      0.03653133
      1.00000000	      0.01140791	      0.01574796	      0.03636534
      1.01000000	      0.01150427	      0.01581432	      0.03629120
      1.02000000	      0.01173513	      0.01597221	      0.03650570
      1.03000000	      0.01216104	      0.01625947	      0.03693491
      1.04000000	      0.01272353	      0.01663125	      0.03733847
      1.05000000	      0.01329017	      0.01699755	      0.03720744
      1.06000000	      0.01384988	      0.01735178	      0.03734708
      1.07000000	      0.01434939	      0.01766191	      0.03739704
      1.08000000	      0.01501541	      0.01806715	      0.03741830
      1.09000000	      0.01552912	      0.01837361	      0.03755503
      1.10000000	      0.01595790	      0.01862554	      0.03753198
      1.11000000	      0.01617505	      0.01875184	      0.03773599
      1.12000000	      0.01630391	      0.01882638	      0.03788476
      1.13000000	      0.01624781	      0.01879397	      0.03751887
      1.14000000	      0.01656830	      0.01897842	      0.03800231
      1.15000000	      0.01668722	      0.01904641	      0.03805379
      1.16000000	      0.01677003	      0.01909361	      0.03810571
      1.17000000	      0.01650491	      0.01894208	      0.03785380
      1.18000000	      0.01645561	      0.01891377	      0.03761261
      1.19000000	      0.01635752	      0.01885731	      0.03728610
      1.20000000	      0.01643708	      0.01890312	      0.03700265
      1.21000000	      0.01653601	      0.01895992	      0.03769671
      1.22000000	      0.01643743	      0.01890332	      0.03846396
      1.23000000	      0.01632434	      0.01883818	      0.03868731
      1.24000000	      0.01616494	      0.01874598	      0.03882071
      1.25000000	      0.01605201	      0.01868039	      0.03891544
      1.26000000	      0.01590325	      0.01859362	      0.03846408
      1.27000000	      0.01550938	      0.01836193	      0.03824003
      1.28000000	      0.01524018	      0.01820188	      0.03789128
      1.29000000	      0.01500571	      0.01806132	      0.03712518
      1.30000000	      0.01450396	      0.01775679	      0.03604650
      1.31000000	      0.01422481	      0.01758508	      0.03598675
      1.32000000	      0.01397815	      0.01743195	      0.03614418
      1.33000000	      0.01372637	      0.01727424	      0.03623623
      1.34000000	      0.01383391	      0.01734177	      0.03633008
      1.35000000	      0.01352848	      0.01714927	      0.03636242
      1.36000000	      0.01336685	      0.01704652	      0.03654873
      1.37000000	      0.01313412	      0.01689746	      0.03630528
      1.38000000	      0.01325430	      0.01697460	      0.03643875
      1.39000000	      0.01283465	      0.01670371	      0.03630993
      1.40000000	      0.01243296	      0.01644025	      0.03662429
      1.41000000	      0.01188296	      0.01607250	      0.03637545
      1.42000000	      0.01131022	      0.01568038	      0.03637626
      1.43000000	      0.01088541	      0.01538309	      0.03634387
      1.44000000	      0.01054397	      0.01513991	      0.03645172
      1.45000000	      0.01044097	      0.01506578	      0.03631815
      1.46000000	      0.01031984	      0.01497813	      0.03636638
      1.47000000	      0.01037030	      0.01501471	      0.03605391
      1.48000000	      0.01022059	      0.01490593	      0.03550742
      1.49000000	      0.01037082	      0.01501508	      0.03568106
      1.50000000	      0.01041623	      0.01504792	      0.03568338
      1.51000000	      0.01026472	      0.01493807	      0.03540557
      1.52000000	      0.01051315	      0.01511776	      0.03555869
      1.53000000	      0.01042785	      0.01505631	      0.03550815
      1.54000000	      0.01049989	      0.01510822	      0.03538362
      1.55000000	      0.01069997	      0.01525149	      0.03542426
      1.56000000	      0.01079537	      0.01531933	      0.03532844
      1.57000000	      0.01110873	      0.01554008	      0.03570095
      1.58000000	      0.01163520	      0.01590406	      0.03566323
      1.59000000	      0.01199056	      0.01614510	      0.03559921
      1.60000000	      0.01242915	      0.01643773	      0.03572852
      1.61000000	      0.01278876	      0.01667383	      0.03551188
      1.62000000	      0.01336515	      0.01704543	      0.03593029
      1.63000000	      0.01389795	      0.01738187	      0.03680087
      1.64000000	      0.01434274	      0.01765782	      0.03741910
      1.65000000	      0.01481347	      0.01794525	      0.03805024
      1.66000000	      0.01512027	      0.01813013	      0.03878207
      1.67000000	      0.01526112	      0.01821438	      0.03934700
      1.68000000	      0.01544337	      0.01832281	      0.03994118
      1.69000000	      0.01573009	      0.01849212	      0.04045961
      1.70000000	      0.01586861	      0.01857336	      0.04113899
      1.71000000	      0.01621636	      0.01877577	      0.04136199
      1.72000000	      0.01639131	      0.01887678	      0.04145776
      1.73000000	      0.01664706	      0.01902348	      0.04079541
      1.74000000	      0.01683721	      0.01913182	      0.04089898
      1.75000000	      0.01709108	      0.01927551	      0.04033630
      1.76000000	      0.01732146	      0.01940499	      0.03993761
      1.77000000	      0.01749052	      0.01949946	      0.03964789
      1.78000000	      0.01760843	      0.01956507	      0.03896619
      1.79000000	      0.01766355	      0.01959567	      0.03843693
      1.80000000	      0.01766574	      0.01959689	      0.03802624
      1.81000000	      0.01764355	      0.01958457	      0.03817076
      1.82000000	      0.01754234	      0.01952832	      0.03813527
      1.83000000	      0.01731930	      0.01940378	      0.03760335
      1.84000000	      0.01696498	      0.01920427	      0.03718398
      1.85000000	      0.01661995	      0.01900798	      0.03707284
      1.86000000	      0.01642291	      0.01889497	      0.03668964
      1.87000000	      0.01621333	      0.01877402	      0.03668674
      1.88000000	      0.01581956	      0.01854463	      0.03650140
      1.89000000	      0.01554214	      0.01838131	      0.03676292
      1.90000000	      0.01523325	      0.01819774	      0.03667259
      1.91000000	      0.01502006	      0.01806995	      0.03693775
      1.92000000	      0.01466189	      0.01785320	      0.03692452
      1.93000000	      0.01445906	      0.01772928	      0.03699907
      1.94000000	      0.01421451	      0.01757871	      0.03724074
      1.95000000	      0.01385201	      0.01735312	      0.03723413
      1.96000000	      0.01346581	      0.01710950	      0.03734739
      1.97000000	      0.01300554	      0.01681455	      0.03763809
      1.98000000	      0.01257209	      0.01653198	      0.03772316
      1.99000000	      0.01221053	      0.01629252	      0.03761295
      2.00000000	      0.01197650	      0.01613563	      0.03755384
      2.01000000	      0.01193084	      0.01610484	      0.03752228
      2.02000000	      0.01196734	      0.01612946	      0.03755089
      2.03000000	      0.01221144	      0.01629313	      0.03782561
      2.04000000	      0.01236725	      0.01639675	      0.03755038
      2.05000000	      0.01233557	      0.01637573	      0.03745809
      2.06000000	      0.01226268	      0.01632728	      0.03736185
      2.07000000	      0.01216818	      0.01626424	      0.03693502
      2.08000000	      0.01200141	      0.01615241	      0.03704543
      2.09000000	      0.01188887	      0.01607650	      0.03705709
      2.10000000	      0.01191391	      0.01609342	      0.03683525
      2.11000000	      0.01216761	      0.01626387	      0.03708783
      2.12000000	      0.01259890	      0.01654960	      0.03732634
      2.13000000	      0.01306457	      0.01685267	      0.03774209
      2.14000000	      0.01374920	      0.01728860	      0.03760688
      2.15000000	      0.01442840	      0.01771048	      0.03768114
      2.16000000	      0.01487910	      0.01798496	      0.03767823
      2.17000000	      0.01570688	      0.01847847	      0.03743296
      2.18000000	      0.01631647	      0.01883364	      0.03742478
      2.19000000	      0.01665912	      0.01903037	      0.03730655
      2.20000000	      0.01669235	      0.01904934	      0.03711933
      2.21000000	      0.01653572	      0.01895975	      0.03722293
      2.22000000	      0.01651878	      0.01895004	      0.03715474
      2.23000000	      0.01684018	      0.01913350	      0.03740313
      2.24000000	      0.01709933	      0.01928016	      0.03772050
      2.25000000	      0.01706688	      0.01926186	      0.03831747
      2.26000000	      0.01720826	      0.01934147	      0.03842897
      2.27000000	      0.01713764	      0.01930175	      0.03845456
      2.28000000	      0.01723273	      0.01935522	      0.03798511
      2.29000000	      0.01717982	      0.01932548	      0.03746626
      2.30000000	      0.01719734	      0.01933534	      0.03712260
      2.31000000	      0.01718973	      0.01933106	      0.03744175
      2.32000000	      0.01695347	      0.01919775	      0.03780655
      2.33000000	      0.01688788	      0.01916058	      0.03804965
      2.34000000	      0.01660630	      0.01900017	      0.03801616
      2.35000000	      0.01653425	      0.01895891	      0.03826583
      2.36000000	      0.01629715	      0.01882249	      0.03825188
      2.37000000	      0.01608739	      0.01870096	      0.03837813
      2.38000000	      0.01560642	      0.01841928	      0.03748028
      2.39000000	      0.01542497	      0.01831189	      0.03719036
      2.40000000	      0.01522973	      0.01819563	      0.03749398
      2.41000000	      0.01485772	      0.01797203	      0.03608375
      2.42000000	      0.01469030	      0.01787049	      0.03618777
      2.43000000	      0.01448390	      0.01774450	      0.03629566
      2.44000000	      0.01405775	      0.01748151	      0.03596136
      2.45000000	      0.01393800	      0.01740689	      0.03626220
      2.46000000	      0.01368051	      0.01724536	      0.03638002
      2.47000000	      0.01333577	      0.01702669	      0.03612521
      2.48000000	      0.01302909	      0.01682977	      0.03629662
      2.49000000	      0.01216989	      0.01626539	      0.03428934
      2.50000000	      0.01155656	      0.01585022	      0.03379076
