Model Marker Errors from IK
version=1
nRows=242
nColumns=4
inDegrees=no
endheader
time	total_squared_error	marker_error_RMS	marker_error_max
      0.00000000	      0.01229479	      0.01634864	      0.03518284
      0.01000000	      0.01278027	      0.01666829	      0.03576634
      0.02000000	      0.01335230	      0.01703724	      0.03604426
      0.03000000	      0.01373400	      0.01727904	      0.03584384
      0.04000000	      0.01434991	      0.01766224	      0.03613679
      0.05000000	      0.01511025	      0.01812412	      0.03637460
      0.06000000	      0.01560060	      0.01841585	      0.03672323
      0.07000000	      0.01584869	      0.01856170	      0.03694431
      0.08000000	      0.01618181	      0.01875576	      0.03720641
      0.09000000	      0.01652174	      0.01895173	      0.03805098
      0.10000000	      0.01677598	      0.01909699	      0.03801780
      0.11000000	      0.01687243	      0.01915181	      0.03833655
      0.12000000	      0.01675309	      0.01908396	      0.03857813
      0.13000000	      0.01656516	      0.01897662	      0.03813942
      0.14000000	      0.01685750	      0.01914334	      0.03812636
      0.15000000	      0.01686927	      0.01915002	      0.03801849
      0.16000000	      0.01695262	      0.01919727	      0.03784354
      0.17000000	      0.01708008	      0.01926930	      0.03733785
      0.18000000	      0.01705571	      0.01925555	      0.03722354
      0.19000000	      0.01699430	      0.01922086	      0.03785722
      0.20000000	      0.01685340	      0.01914101	      0.03816607
      0.21000000	      0.01662245	      0.01900941	      0.03818845
      0.22000000	      0.01633799	      0.01884605	      0.03811825
      0.23000000	      0.01595801	      0.01862561	      0.03764693
      0.24000000	      0.01563288	      0.01843489	      0.03803506
      0.25000000	      0.01535110	      0.01826799	      0.03790080
      0.26000000	      0.01498839	      0.01805089	      0.03699417
      0.27000000	      0.01461519	      0.01782475	      0.03601847
      0.28000000	      0.01433664	      0.01765407	      0.03516261
      0.29000000	      0.01404047	      0.01747076	      0.03477695
      0.30000000	      0.01381332	      0.01732887	      0.03493923
      0.31000000	      0.01358124	      0.01718268	      0.03509789
      0.32000000	      0.01337161	      0.01704955	      0.03528929
      0.33000000	      0.01313419	      0.01689751	      0.03564421
      0.34000000	      0.01279385	      0.01667715	      0.03611160
      0.35000000	      0.01246832	      0.01646361	      0.03599706
      0.36000000	      0.01211151	      0.01622633	      0.03629330
      0.37000000	      0.01172051	      0.01596226	      0.03643522
      0.38000000	      0.01136243	      0.01571653	      0.03606495
      0.39000000	      0.01110453	      0.01553714	      0.03576176
      0.40000000	      0.01090411	      0.01539629	      0.03573538
      0.41000000	      0.01078486	      0.01531187	      0.03531734
      0.42000000	      0.01079440	      0.01531864	      0.03555873
      0.43000000	      0.01076070	      0.01529471	      0.03522347
      0.44000000	      0.01081864	      0.01533584	      0.03494582
      0.45000000	      0.01104870	      0.01549804	      0.03498972
      0.46000000	      0.01137902	      0.01572800	      0.03505305
      0.47000000	      0.01176623	      0.01599336	      0.03504397
      0.48000000	      0.01211411	      0.01622807	      0.03559575
      0.49000000	      0.01263782	      0.01657514	      0.03608495
      0.50000000	      0.01312140	      0.01688928	      0.03657566
      0.51000000	      0.01348855	      0.01712394	      0.03724758
      0.52000000	      0.01388090	      0.01737121	      0.03753399
      0.53000000	      0.01411461	      0.01751683	      0.03757947
      0.54000000	      0.01430636	      0.01763541	      0.03747522
      0.55000000	      0.01452303	      0.01776846	      0.03749843
      0.56000000	      0.01478393	      0.01792735	      0.03729035
      0.57000000	      0.01501772	      0.01806854	      0.03752639
      0.58000000	      0.01519311	      0.01817374	      0.03794259
      0.59000000	      0.01529204	      0.01823282	      0.03841535
      0.60000000	      0.01552495	      0.01837115	      0.03892129
      0.61000000	      0.01566192	      0.01845200	      0.03914748
      0.62000000	      0.01617765	      0.01875335	      0.03956041
      0.63000000	      0.01661110	      0.01900292	      0.03970306
      0.64000000	      0.01703887	      0.01924604	      0.03932420
      0.65000000	      0.01754093	      0.01952753	      0.03943880
      0.66000000	      0.01789467	      0.01972345	      0.04007095
      0.67000000	      0.01816464	      0.01987168	      0.04057910
      0.68000000	      0.01838172	      0.01999006	      0.04064181
      0.69000000	      0.01834497	      0.01997007	      0.04041447
      0.70000000	      0.01823366	      0.01990939	      0.04000008
      0.71000000	      0.01797886	      0.01976979	      0.03916193
      0.72000000	      0.01774878	      0.01964289	      0.03857929
      0.73000000	      0.01734171	      0.01941633	      0.03784797
      0.74000000	      0.01679522	      0.01910794	      0.03719819
      0.75000000	      0.01643433	      0.01890153	      0.03711324
      0.76000000	      0.01600164	      0.01865105	      0.03706927
      0.77000000	      0.01561503	      0.01842436	      0.03717732
      0.78000000	      0.01540306	      0.01829889	      0.03746095
      0.79000000	      0.01520058	      0.01817821	      0.03734388
      0.80000000	      0.01490161	      0.01799856	      0.03745841
      0.81000000	      0.01473018	      0.01789473	      0.03734860
      0.82000000	      0.01449810	      0.01775320	      0.03759888
      0.83000000	      0.01430811	      0.01763649	      0.03792403
      0.84000000	      0.01392313	      0.01739761	      0.03773531
      0.85000000	      0.01343924	      0.01709261	      0.03784340
      0.86000000	      0.01286872	      0.01672587	      0.03768312
      0.87000000	      0.01230832	      0.01635764	      0.03733126
      0.88000000	      0.01162964	      0.01590026	      0.03731508
      0.89000000	      0.01112869	      0.01555403	      0.03709840
      0.90000000	      0.01073901	      0.01527929	      0.03702544
      0.91000000	      0.01038491	      0.01502527	      0.03677218
      0.92000000	      0.01028747	      0.01495462	      0.03656515
      0.93000000	      0.01027222	      0.01494353	      0.03642754
      0.94000000	      0.01038527	      0.01502554	      0.03635402
      0.95000000	      0.01052969	      0.01512965	      0.03626188
      0.96000000	      0.01068884	      0.01524356	      0.03631963
      0.97000000	      0.01085101	      0.01535876	      0.03616147
      0.98000000	      0.01098930	      0.01545632	      0.03610797
      0.99000000	      0.01138868	      0.01573468	      0.03640822
      1.00000000	      0.01190050	      0.01608436	      0.03670814
      1.01000000	      0.01245493	      0.01645477	      0.03698743
      1.02000000	      0.01317461	      0.01692349	      0.03746657
      1.03000000	      0.01389806	      0.01738193	      0.03784959
      1.04000000	      0.01450086	      0.01775489	      0.03807924
      1.05000000	      0.01518918	      0.01817140	      0.03811479
      1.06000000	      0.01561453	      0.01842407	      0.03810939
      1.07000000	      0.01576284	      0.01851136	      0.03791160
      1.08000000	      0.01574471	      0.01850071	      0.03795362
      1.09000000	      0.01569752	      0.01847297	      0.03803119
      1.10000000	      0.01578864	      0.01852650	      0.03822915
      1.11000000	      0.01601014	      0.01865601	      0.03814530
      1.12000000	      0.01617370	      0.01875106	      0.03839444
      1.13000000	      0.01607980	      0.01869655	      0.03799671
      1.14000000	      0.01602344	      0.01866375	      0.03782994
      1.15000000	      0.01607775	      0.01869535	      0.03759684
      1.16000000	      0.01623134	      0.01878444	      0.03732765
      1.17000000	      0.01635895	      0.01885814	      0.03709848
      1.18000000	      0.01644111	      0.01890543	      0.03787935
      1.19000000	      0.01646385	      0.01891850	      0.03838604
      1.20000000	      0.01628591	      0.01881599	      0.03866448
      1.21000000	      0.01607855	      0.01869582	      0.03836339
      1.22000000	      0.01581827	      0.01854388	      0.03813075
      1.23000000	      0.01567798	      0.01846147	      0.03778990
      1.24000000	      0.01545795	      0.01833146	      0.03752401
      1.25000000	      0.01520403	      0.01818028	      0.03736452
      1.26000000	      0.01488355	      0.01798765	      0.03591984
      1.27000000	      0.01461034	      0.01782179	      0.03608904
      1.28000000	      0.01419731	      0.01756807	      0.03614040
      1.29000000	      0.01384351	      0.01734779	      0.03598490
      1.30000000	      0.01355698	      0.01716732	      0.03621264
      1.31000000	      0.01331160	      0.01701125	      0.03645508
      1.32000000	      0.01303192	      0.01683159	      0.03641675
      1.33000000	      0.01284924	      0.01671321	      0.03653295
      1.34000000	      0.01255876	      0.01652321	      0.03631065
      1.35000000	      0.01226288	      0.01632741	      0.03666722
      1.36000000	      0.01202999	      0.01617163	      0.03675094
      1.37000000	      0.01162441	      0.01589668	      0.03714304
      1.38000000	      0.01121836	      0.01561657	      0.03685087
      1.39000000	      0.01082336	      0.01533918	      0.03680332
      1.40000000	      0.01044277	      0.01506708	      0.03669992
      1.41000000	      0.01011173	      0.01482633	      0.03646531
      1.42000000	      0.00991555	      0.01468180	      0.03653603
      1.43000000	      0.00975792	      0.01456464	      0.03612931
      1.44000000	      0.00979036	      0.01458883	      0.03595632
      1.45000000	      0.00998886	      0.01473598	      0.03565624
      1.46000000	      0.01015816	      0.01486033	      0.03565251
      1.47000000	      0.01027751	      0.01494738	      0.03539025
      1.48000000	      0.01038441	      0.01502492	      0.03539263
      1.49000000	      0.01040683	      0.01504113	      0.03539709
      1.50000000	      0.01056116	      0.01515224	      0.03577550
      1.51000000	      0.01066419	      0.01522597	      0.03573778
      1.52000000	      0.01077849	      0.01530735	      0.03562909
      1.53000000	      0.01095145	      0.01542968	      0.03582191
      1.54000000	      0.01101947	      0.01547752	      0.03587144
      1.55000000	      0.01126417	      0.01564843	      0.03614919
      1.56000000	      0.01155671	      0.01585032	      0.03625006
      1.57000000	      0.01201904	      0.01616426	      0.03614928
      1.58000000	      0.01251788	      0.01649630	      0.03610952
      1.59000000	      0.01296984	      0.01679146	      0.03621908
      1.60000000	      0.01348346	      0.01712071	      0.03640354
      1.61000000	      0.01404657	      0.01747456	      0.03720483
      1.62000000	      0.01456450	      0.01779381	      0.03761259
      1.63000000	      0.01500747	      0.01806237	      0.03827904
      1.64000000	      0.01533941	      0.01826103	      0.03915334
      1.65000000	      0.01544162	      0.01832178	      0.03957192
      1.66000000	      0.01568221	      0.01846396	      0.04042654
      1.67000000	      0.01589752	      0.01859028	      0.04118756
      1.68000000	      0.01599828	      0.01864909	      0.04141560
      1.69000000	      0.01635239	      0.01885436	      0.04153126
      1.70000000	      0.01661101	      0.01900286	      0.04143441
      1.71000000	      0.01694456	      0.01919271	      0.04091894
      1.72000000	      0.01730876	      0.01939787	      0.04108744
      1.73000000	      0.01770936	      0.01962106	      0.04051727
      1.74000000	      0.01802544	      0.01979539	      0.04040689
      1.75000000	      0.01824092	      0.01991336	      0.04085023
      1.76000000	      0.01844329	      0.02002352	      0.04115321
      1.77000000	      0.01876106	      0.02019527	      0.04179956
      1.78000000	      0.01880266	      0.02021766	      0.04150002
      1.79000000	      0.01855358	      0.02008329	      0.04093132
      1.80000000	      0.01839227	      0.01999580	      0.04025768
      1.81000000	      0.01808947	      0.01983052	      0.03945185
      1.82000000	      0.01784090	      0.01969380	      0.03907232
      1.83000000	      0.01723273	      0.01935522	      0.03848729
      1.84000000	      0.01687523	      0.01915340	      0.03780793
      1.85000000	      0.01652583	      0.01895408	      0.03714847
      1.86000000	      0.01625849	      0.01880014	      0.03672231
      1.87000000	      0.01600525	      0.01865316	      0.03678292
      1.88000000	      0.01581066	      0.01853942	      0.03671852
      1.89000000	      0.01540586	      0.01830055	      0.03705433
      1.90000000	      0.01517063	      0.01816030	      0.03730650
      1.91000000	      0.01492293	      0.01801143	      0.03743811
      1.92000000	      0.01461418	      0.01782413	      0.03756782
      1.93000000	      0.01420486	      0.01757274	      0.03767107
      1.94000000	      0.01375486	      0.01729216	      0.03767906
      1.95000000	      0.01328106	      0.01699172	      0.03792882
      1.96000000	      0.01269980	      0.01661573	      0.03786159
      1.97000000	      0.01217682	      0.01627002	      0.03784081
      1.98000000	      0.01179723	      0.01601442	      0.03762230
      1.99000000	      0.01149037	      0.01580477	      0.03742376
      2.00000000	      0.01138030	      0.01572889	      0.03741255
      2.01000000	      0.01136111	      0.01571562	      0.03734810
      2.02000000	      0.01138409	      0.01573150	      0.03741864
      2.03000000	      0.01134135	      0.01570194	      0.03729943
      2.04000000	      0.01135478	      0.01571124	      0.03687616
      2.05000000	      0.01134491	      0.01570441	      0.03686319
      2.06000000	      0.01143307	      0.01576531	      0.03662972
      2.07000000	      0.01169028	      0.01594166	      0.03674813
      2.08000000	      0.01198538	      0.01614161	      0.03686925
      2.09000000	      0.01230168	      0.01635322	      0.03699826
      2.10000000	      0.01297062	      0.01679196	      0.03737366
      2.11000000	      0.01375021	      0.01728924	      0.03750564
      2.12000000	      0.01437497	      0.01767765	      0.03765403
      2.13000000	      0.01493507	      0.01801875	      0.03796319
      2.14000000	      0.01577253	      0.01851705	      0.03798514
      2.15000000	      0.01649287	      0.01893517	      0.03787546
      2.16000000	      0.01668253	      0.01904373	      0.03752331
      2.17000000	      0.01669656	      0.01905173	      0.03772527
      2.18000000	      0.01641538	      0.01889064	      0.03768596
      2.19000000	      0.01639748	      0.01888033	      0.03752284
      2.20000000	      0.01662588	      0.01901137	      0.03751820
      2.21000000	      0.01711660	      0.01928989	      0.03794057
      2.22000000	      0.01727142	      0.01937694	      0.03804179
      2.23000000	      0.01732972	      0.01940961	      0.03834539
      2.24000000	      0.01750286	      0.01950633	      0.03852025
      2.25000000	      0.01770302	      0.01961755	      0.03859098
      2.26000000	      0.01785692	      0.01970264	      0.03821999
      2.27000000	      0.01783471	      0.01969038	      0.03806874
      2.28000000	      0.01791247	      0.01973326	      0.03885398
      2.29000000	      0.01787013	      0.01970992	      0.03936923
      2.30000000	      0.01755136	      0.01953334	      0.03930729
      2.31000000	      0.01729297	      0.01938902	      0.03915803
      2.32000000	      0.01706205	      0.01925913	      0.03903815
      2.33000000	      0.01681357	      0.01911838	      0.03910914
      2.34000000	      0.01647248	      0.01892346	      0.03906412
      2.35000000	      0.01608379	      0.01869887	      0.03876594
      2.36000000	      0.01581100	      0.01853962	      0.03838517
      2.37000000	      0.01547942	      0.01834418	      0.03796633
      2.38000000	      0.01501644	      0.01806777	      0.03739349
      2.39000000	      0.01441035	      0.01769939	      0.03565527
      2.40000000	      0.01407913	      0.01749480	      0.03575587
      2.41000000	      0.01338109	      0.01705559	      0.03400942
