Model Marker Errors from IK
version=1
nRows=243
nColumns=4
inDegrees=no
endheader
time	total_squared_error	marker_error_RMS	marker_error_max
      0.00000000	      0.01456068	      0.01779147	      0.03739860
      0.01000000	      0.01499437	      0.01805449	      0.03758371
      0.02000000	      0.01552467	      0.01837098	      0.03787704
      0.03000000	      0.01582520	      0.01854794	      0.03811848
      0.04000000	      0.01640464	      0.01888445	      0.03830389
      0.05000000	      0.01625927	      0.01880060	      0.03846891
      0.06000000	      0.01623294	      0.01878537	      0.03857526
      0.07000000	      0.01610324	      0.01871017	      0.03875816
      0.08000000	      0.01606418	      0.01868747	      0.03885212
      0.09000000	      0.01599753	      0.01864866	      0.03884692
      0.10000000	      0.01587877	      0.01857930	      0.03857736
      0.11000000	      0.01592910	      0.01860873	      0.03847229
      0.12000000	      0.01627907	      0.01881204	      0.03823318
      0.13000000	      0.01664682	      0.01902334	      0.03823121
      0.14000000	      0.01694509	      0.01919301	      0.03786579
      0.15000000	      0.01714185	      0.01930412	      0.03743503
      0.16000000	      0.01729644	      0.01939097	      0.03719841
      0.17000000	      0.01726728	      0.01937461	      0.03766912
      0.18000000	      0.01717421	      0.01932233	      0.03785642
      0.19000000	      0.01689025	      0.01916193	      0.03842898
      0.20000000	      0.01655966	      0.01897347	      0.03859581
      0.21000000	      0.01615762	      0.01874174	      0.03833376
      0.22000000	      0.01574393	      0.01850025	      0.03803967
      0.23000000	      0.01530164	      0.01823854	      0.03756894
      0.24000000	      0.01491004	      0.01800364	      0.03675001
      0.25000000	      0.01444374	      0.01771988	      0.03599161
      0.26000000	      0.01408797	      0.01750029	      0.03607039
      0.27000000	      0.01371310	      0.01726589	      0.03630840
      0.28000000	      0.01335690	      0.01704017	      0.03625460
      0.29000000	      0.01303817	      0.01683563	      0.03617246
      0.30000000	      0.01272058	      0.01662932	      0.03624489
      0.31000000	      0.01239923	      0.01641793	      0.03635312
      0.32000000	      0.01203621	      0.01617581	      0.03636005
      0.33000000	      0.01173274	      0.01597058	      0.03663061
      0.34000000	      0.01128685	      0.01566418	      0.03644348
      0.35000000	      0.01090900	      0.01539974	      0.03630035
      0.36000000	      0.01059654	      0.01517760	      0.03627464
      0.37000000	      0.01032702	      0.01498334	      0.03564367
      0.38000000	      0.01025424	      0.01493045	      0.03533035
      0.39000000	      0.01026008	      0.01493470	      0.03505182
      0.40000000	      0.01040765	      0.01504172	      0.03473500
      0.41000000	      0.01056010	      0.01515148	      0.03451346
      0.42000000	      0.01079254	      0.01531733	      0.03438844
      0.43000000	      0.01092136	      0.01540847	      0.03426225
      0.44000000	      0.01103504	      0.01548845	      0.03428904
      0.45000000	      0.01122820	      0.01562342	      0.03430300
      0.46000000	      0.01158588	      0.01587032	      0.03462748
      0.47000000	      0.01202200	      0.01616625	      0.03520351
      0.48000000	      0.01245362	      0.01645390	      0.03547901
      0.49000000	      0.01304342	      0.01683902	      0.03584032
      0.50000000	      0.01354278	      0.01715833	      0.03618834
      0.51000000	      0.01377217	      0.01730304	      0.03662542
      0.52000000	      0.01414371	      0.01753488	      0.03704516
      0.53000000	      0.01454591	      0.01778245	      0.03753350
      0.54000000	      0.01473332	      0.01789664	      0.03813942
      0.55000000	      0.01509137	      0.01811279	      0.03864084
      0.56000000	      0.01528203	      0.01822685	      0.03934060
      0.57000000	      0.01530342	      0.01823960	      0.03978850
      0.58000000	      0.01541668	      0.01830697	      0.04009984
      0.59000000	      0.01556945	      0.01839746	      0.04050395
      0.60000000	      0.01583421	      0.01855322	      0.04058533
      0.61000000	      0.01630608	      0.01882764	      0.04058465
      0.62000000	      0.01657291	      0.01898106	      0.04082384
      0.63000000	      0.01686137	      0.01914554	      0.04061227
      0.64000000	      0.01713225	      0.01929871	      0.04013524
      0.65000000	      0.01740026	      0.01944907	      0.03977816
      0.66000000	      0.01764506	      0.01958541	      0.03972569
      0.67000000	      0.01770848	      0.01962058	      0.03922284
      0.68000000	      0.01780513	      0.01967404	      0.03933153
      0.69000000	      0.01771537	      0.01962439	      0.03859441
      0.70000000	      0.01741066	      0.01945488	      0.03784421
      0.71000000	      0.01703431	      0.01924347	      0.03746930
      0.72000000	      0.01658745	      0.01898938	      0.03691950
      0.73000000	      0.01620565	      0.01876957	      0.03681330
      0.74000000	      0.01576745	      0.01851407	      0.03679026
      0.75000000	      0.01537783	      0.01828389	      0.03681185
      0.76000000	      0.01504326	      0.01808390	      0.03672444
      0.77000000	      0.01469883	      0.01787567	      0.03677149
      0.78000000	      0.01441778	      0.01770396	      0.03688713
      0.79000000	      0.01407132	      0.01748994	      0.03693512
      0.80000000	      0.01368111	      0.01724574	      0.03704386
      0.81000000	      0.01332679	      0.01702096	      0.03713992
      0.82000000	      0.01290923	      0.01675218	      0.03668684
      0.83000000	      0.01248904	      0.01647728	      0.03709941
      0.84000000	      0.01209969	      0.01621841	      0.03697572
      0.85000000	      0.01162514	      0.01589718	      0.03698627
      0.86000000	      0.01116997	      0.01558286	      0.03685897
      0.87000000	      0.01086010	      0.01536519	      0.03702646
      0.88000000	      0.01063025	      0.01520172	      0.03691545
      0.89000000	      0.01048404	      0.01509682	      0.03683089
      0.90000000	      0.01045281	      0.01507432	      0.03675382
      0.91000000	      0.01056502	      0.01515501	      0.03692225
      0.92000000	      0.01068409	      0.01524017	      0.03693344
      0.93000000	      0.01084302	      0.01535311	      0.03660110
      0.94000000	      0.01103876	      0.01549107	      0.03671681
      0.95000000	      0.01122011	      0.01561779	      0.03683760
      0.96000000	      0.01139879	      0.01574166	      0.03657714
      0.97000000	      0.01168092	      0.01593528	      0.03656979
      0.98000000	      0.01205818	      0.01619056	      0.03667088
      0.99000000	      0.01243203	      0.01643963	      0.03669681
      1.00000000	      0.01290465	      0.01674920	      0.03735504
      1.01000000	      0.01333646	      0.01702713	      0.03727926
      1.02000000	      0.01389449	      0.01737970	      0.03755130
      1.03000000	      0.01458396	      0.01780569	      0.03757365
      1.04000000	      0.01500525	      0.01806104	      0.03779819
      1.05000000	      0.01558114	      0.01840436	      0.03788948
      1.06000000	      0.01595883	      0.01862609	      0.03803530
      1.07000000	      0.01606421	      0.01868748	      0.03811029
      1.08000000	      0.01603454	      0.01867022	      0.03817010
      1.09000000	      0.01601472	      0.01865867	      0.03836969
      1.10000000	      0.01610119	      0.01870898	      0.03858619
      1.11000000	      0.01597078	      0.01863306	      0.03853255
      1.12000000	      0.01584187	      0.01855770	      0.03827947
      1.13000000	      0.01588826	      0.01858486	      0.03840452
      1.14000000	      0.01589352	      0.01858794	      0.03833155
      1.15000000	      0.01614780	      0.01873604	      0.03813492
      1.16000000	      0.01643379	      0.01890123	      0.03799213
      1.17000000	      0.01667066	      0.01903696	      0.03779382
      1.18000000	      0.01708812	      0.01927384	      0.03769978
      1.19000000	      0.01726107	      0.01937113	      0.03813613
      1.20000000	      0.01746507	      0.01948526	      0.03866073
      1.21000000	      0.01733971	      0.01941521	      0.03905031
      1.22000000	      0.01718392	      0.01932779	      0.03924387
      1.23000000	      0.01689442	      0.01916429	      0.03910671
      1.24000000	      0.01655284	      0.01896956	      0.03905737
      1.25000000	      0.01624299	      0.01879118	      0.03866634
      1.26000000	      0.01568212	      0.01846390	      0.03716373
      1.27000000	      0.01536441	      0.01827591	      0.03683027
      1.28000000	      0.01498681	      0.01804993	      0.03687872
      1.29000000	      0.01469351	      0.01787244	      0.03670777
      1.30000000	      0.01439052	      0.01768721	      0.03691964
      1.31000000	      0.01419327	      0.01756557	      0.03723674
      1.32000000	      0.01393743	      0.01740654	      0.03727384
      1.33000000	      0.01364715	      0.01722432	      0.03731974
      1.34000000	      0.01327224	      0.01698608	      0.03754039
      1.35000000	      0.01283539	      0.01670420	      0.03765630
      1.36000000	      0.01223283	      0.01630739	      0.03748739
      1.37000000	      0.01172988	      0.01596864	      0.03713493
      1.38000000	      0.01134089	      0.01570162	      0.03727949
      1.39000000	      0.01096693	      0.01544058	      0.03711149
      1.40000000	      0.01081138	      0.01533069	      0.03700693
      1.41000000	      0.01081704	      0.01533470	      0.03685194
      1.42000000	      0.01074694	      0.01528493	      0.03658541
      1.43000000	      0.01103254	      0.01548670	      0.03668570
      1.44000000	      0.01105721	      0.01550401	      0.03637650
      1.45000000	      0.01110525	      0.01553765	      0.03641346
      1.46000000	      0.01115486	      0.01557231	      0.03621339
      1.47000000	      0.01118620	      0.01559418	      0.03608982
      1.48000000	      0.01134539	      0.01570474	      0.03630344
      1.49000000	      0.01136470	      0.01571810	      0.03598556
      1.50000000	      0.01147096	      0.01579141	      0.03586671
      1.51000000	      0.01153577	      0.01583596	      0.03568172
      1.52000000	      0.01165603	      0.01591829	      0.03569116
      1.53000000	      0.01181435	      0.01602603	      0.03586820
      1.54000000	      0.01217627	      0.01626965	      0.03549234
      1.55000000	      0.01252856	      0.01650333	      0.03556204
      1.56000000	      0.01280602	      0.01668508	      0.03533214
      1.57000000	      0.01332463	      0.01701957	      0.03610726
      1.58000000	      0.01383612	      0.01734316	      0.03711428
      1.59000000	      0.01419020	      0.01756367	      0.03781748
      1.60000000	      0.01442481	      0.01770827	      0.03812045
      1.61000000	      0.01479376	      0.01793330	      0.03927232
      1.62000000	      0.01496562	      0.01803717	      0.04013850
      1.63000000	      0.01509755	      0.01811650	      0.04099104
      1.64000000	      0.01541305	      0.01830481	      0.04157134
      1.65000000	      0.01571466	      0.01848305	      0.04206779
      1.66000000	      0.01601885	      0.01866108	      0.04210363
      1.67000000	      0.01624403	      0.01879178	      0.04227760
      1.68000000	      0.01638296	      0.01887197	      0.04198770
      1.69000000	      0.01664645	      0.01902313	      0.04127060
      1.70000000	      0.01695174	      0.01919677	      0.04063707
      1.71000000	      0.01739449	      0.01944585	      0.04107716
      1.72000000	      0.01770382	      0.01961800	      0.04050707
      1.73000000	      0.01803864	      0.01980264	      0.03985277
      1.74000000	      0.01819591	      0.01988877	      0.03973709
      1.75000000	      0.01809774	      0.01983505	      0.03946969
      1.76000000	      0.01808671	      0.01982900	      0.03904955
      1.77000000	      0.01788514	      0.01971820	      0.03880087
      1.78000000	      0.01755716	      0.01953657	      0.03806552
      1.79000000	      0.01708791	      0.01927372	      0.03756348
      1.80000000	      0.01667898	      0.01904170	      0.03718154
      1.81000000	      0.01636112	      0.01885939	      0.03675475
      1.82000000	      0.01616996	      0.01874889	      0.03701432
      1.83000000	      0.01590695	      0.01859578	      0.03698194
      1.84000000	      0.01570095	      0.01847498	      0.03683403
      1.85000000	      0.01552161	      0.01836917	      0.03708906
      1.86000000	      0.01542397	      0.01831130	      0.03719749
      1.87000000	      0.01513316	      0.01813785	      0.03718702
      1.88000000	      0.01486524	      0.01797658	      0.03739312
      1.89000000	      0.01465192	      0.01784713	      0.03750911
      1.90000000	      0.01443331	      0.01771349	      0.03792883
      1.91000000	      0.01398661	      0.01743722	      0.03785807
      1.92000000	      0.01332908	      0.01702241	      0.03763788
      1.93000000	      0.01283493	      0.01670390	      0.03776025
      1.94000000	      0.01242950	      0.01643796	      0.03778697
      1.95000000	      0.01196126	      0.01612536	      0.03762487
      1.96000000	      0.01162516	      0.01589720	      0.03758638
      1.97000000	      0.01138309	      0.01573082	      0.03748237
      1.98000000	      0.01128066	      0.01565987	      0.03730380
      1.99000000	      0.01133903	      0.01570034	      0.03740356
      2.00000000	      0.01135355	      0.01571039	      0.03709906
      2.01000000	      0.01141952	      0.01575597	      0.03728454
      2.02000000	      0.01148704	      0.01580248	      0.03695520
      2.03000000	      0.01158668	      0.01587087	      0.03689759
      2.04000000	      0.01167032	      0.01592804	      0.03698008
      2.05000000	      0.01178823	      0.01600830	      0.03705837
      2.06000000	      0.01196241	      0.01612614	      0.03713959
      2.07000000	      0.01221864	      0.01629793	      0.03716669
      2.08000000	      0.01234477	      0.01638183	      0.03728418
      2.09000000	      0.01262603	      0.01656740	      0.03749917
      2.10000000	      0.01301538	      0.01682091	      0.03751033
      2.11000000	      0.01364284	      0.01722160	      0.03759587
      2.12000000	      0.01415221	      0.01754015	      0.03772032
      2.13000000	      0.01449792	      0.01775309	      0.03770014
      2.14000000	      0.01490752	      0.01800213	      0.03761572
      2.15000000	      0.01544721	      0.01832509	      0.03735480
      2.16000000	      0.01570448	      0.01847706	      0.03714312
      2.17000000	      0.01606026	      0.01868518	      0.03747926
      2.18000000	      0.01591103	      0.01859817	      0.03757104
      2.19000000	      0.01594091	      0.01861562	      0.03752927
      2.20000000	      0.01605627	      0.01868286	      0.03765268
      2.21000000	      0.01615500	      0.01874022	      0.03811527
      2.22000000	      0.01615285	      0.01873897	      0.03825994
      2.23000000	      0.01620142	      0.01876712	      0.03832379
      2.24000000	      0.01610737	      0.01871257	      0.03814804
      2.25000000	      0.01602049	      0.01866203	      0.03744901
      2.26000000	      0.01607165	      0.01869181	      0.03710011
      2.27000000	      0.01602979	      0.01866745	      0.03685303
      2.28000000	      0.01611170	      0.01871508	      0.03668411
      2.29000000	      0.01617136	      0.01874970	      0.03707543
      2.30000000	      0.01612504	      0.01872283	      0.03741338
      2.31000000	      0.01605666	      0.01868309	      0.03779119
      2.32000000	      0.01587316	      0.01857602	      0.03817125
      2.33000000	      0.01562005	      0.01842732	      0.03809706
      2.34000000	      0.01547452	      0.01834128	      0.03811419
      2.35000000	      0.01519834	      0.01817687	      0.03778096
      2.36000000	      0.01488429	      0.01798810	      0.03741454
      2.37000000	      0.01449933	      0.01775395	      0.03566157
      2.38000000	      0.01415333	      0.01754084	      0.03562287
      2.39000000	      0.01399603	      0.01744309	      0.03526883
      2.40000000	      0.01376322	      0.01729741	      0.03572564
      2.41000000	      0.01350204	      0.01713250	      0.03580480
      2.42000000	      0.01324764	      0.01697033	      0.03556772
