Model Marker Errors from IK
version=1
nRows=242
nColumns=4
inDegrees=no
endheader
time	total_squared_error	marker_error_RMS	marker_error_max
      0.00000000	      0.01305980	      0.01684959	      0.03287574
      0.01000000	      0.01267085	      0.01659679	      0.03284595
      0.02000000	      0.01268195	      0.01660405	      0.03285690
      0.03000000	      0.01309827	      0.01687439	      0.03365625
      0.04000000	      0.01407259	      0.01749074	      0.03507773
      0.05000000	      0.01491828	      0.01800862	      0.03672996
      0.06000000	      0.01521694	      0.01818799	      0.03809998
      0.07000000	      0.01533591	      0.01825895	      0.03911474
      0.08000000	      0.01542276	      0.01831058	      0.03970887
      0.09000000	      0.01581875	      0.01854416	      0.04006061
      0.10000000	      0.01613192	      0.01872682	      0.04036401
      0.11000000	      0.01653559	      0.01895968	      0.04038435
      0.12000000	      0.01678030	      0.01909946	      0.04087467
      0.13000000	      0.01694595	      0.01919349	      0.04071862
      0.14000000	      0.01709162	      0.01927581	      0.04000093
      0.15000000	      0.01726009	      0.01937058	      0.03946422
      0.16000000	      0.01743633	      0.01946922	      0.03887372
      0.17000000	      0.01745708	      0.01948080	      0.03853707
      0.18000000	      0.01742550	      0.01946318	      0.03778479
      0.19000000	      0.01719241	      0.01933256	      0.03737712
      0.20000000	      0.01695185	      0.01919683	      0.03678559
      0.21000000	      0.01669192	      0.01904909	      0.03650071
      0.22000000	      0.01632961	      0.01884122	      0.03589477
      0.23000000	      0.01600899	      0.01865534	      0.03554369
      0.24000000	      0.01566690	      0.01845494	      0.03532607
      0.25000000	      0.01554488	      0.01838293	      0.03477393
      0.26000000	      0.01518668	      0.01816990	      0.03450563
      0.27000000	      0.01507419	      0.01810248	      0.03578726
      0.28000000	      0.01503182	      0.01807702	      0.03513355
      0.29000000	      0.01484938	      0.01796698	      0.03515839
      0.30000000	      0.01471453	      0.01788522	      0.03497567
      0.31000000	      0.01438037	      0.01768097	      0.03434198
      0.32000000	      0.01409540	      0.01750490	      0.03369165
      0.33000000	      0.01365243	      0.01722765	      0.03294884
      0.34000000	      0.01334466	      0.01703236	      0.03229392
      0.35000000	      0.01306173	      0.01685083	      0.03275588
      0.36000000	      0.01265947	      0.01658933	      0.03292493
      0.37000000	      0.01236181	      0.01639314	      0.03351435
      0.38000000	      0.01219022	      0.01627897	      0.03387972
      0.39000000	      0.01203819	      0.01617713	      0.03402876
      0.40000000	      0.01189782	      0.01608255	      0.03423959
      0.41000000	      0.01187575	      0.01606762	      0.03414507
      0.42000000	      0.01198314	      0.01614011	      0.03413359
      0.43000000	      0.01206511	      0.01619522	      0.03380631
      0.44000000	      0.01225515	      0.01632226	      0.03374017
      0.45000000	      0.01250367	      0.01648693	      0.03368393
      0.46000000	      0.01277070	      0.01666205	      0.03378662
      0.47000000	      0.01291008	      0.01675273	      0.03387557
      0.48000000	      0.01302288	      0.01682576	      0.03393282
      0.49000000	      0.01316361	      0.01691643	      0.03398129
      0.50000000	      0.01319861	      0.01693890	      0.03401853
      0.51000000	      0.01340787	      0.01707265	      0.03367743
      0.52000000	      0.01364497	      0.01722295	      0.03430220
      0.53000000	      0.01389929	      0.01738271	      0.03432183
      0.54000000	      0.01396582	      0.01742426	      0.03406667
      0.55000000	      0.01415426	      0.01754142	      0.03397060
      0.56000000	      0.01453058	      0.01777307	      0.03412115
      0.57000000	      0.01499621	      0.01805560	      0.03465695
      0.58000000	      0.01543527	      0.01831800	      0.03491445
      0.59000000	      0.01600598	      0.01865358	      0.03493351
      0.60000000	      0.01678230	      0.01910059	      0.03527839
      0.61000000	      0.01692488	      0.01918156	      0.03532204
      0.62000000	      0.01706060	      0.01925832	      0.03543980
      0.63000000	      0.01716943	      0.01931964	      0.03599433
      0.64000000	      0.01733227	      0.01941104	      0.03653021
      0.65000000	      0.01774780	      0.01964234	      0.03714775
      0.66000000	      0.01795156	      0.01975478	      0.03783316
      0.67000000	      0.01795393	      0.01975608	      0.03818425
      0.68000000	      0.01775736	      0.01964764	      0.03849120
      0.69000000	      0.01738775	      0.01944208	      0.03805623
      0.70000000	      0.01695448	      0.01919833	      0.03762632
      0.71000000	      0.01652670	      0.01895458	      0.03745283
      0.72000000	      0.01614955	      0.01873705	      0.03714042
      0.73000000	      0.01587213	      0.01857542	      0.03678019
      0.74000000	      0.01545338	      0.01832875	      0.03644207
      0.75000000	      0.01504271	      0.01808357	      0.03600070
      0.76000000	      0.01481135	      0.01794397	      0.03535848
      0.77000000	      0.01449296	      0.01775005	      0.03496387
      0.78000000	      0.01420008	      0.01756978	      0.03441772
      0.79000000	      0.01383737	      0.01734394	      0.03402396
      0.80000000	      0.01371929	      0.01726979	      0.03355051
      0.81000000	      0.01358106	      0.01718256	      0.03337008
      0.82000000	      0.01356950	      0.01717524	      0.03286298
      0.83000000	      0.01342364	      0.01708269	      0.03299037
      0.84000000	      0.01329175	      0.01699856	      0.03294778
      0.85000000	      0.01313754	      0.01689966	      0.03260473
      0.86000000	      0.01299944	      0.01681061	      0.03248195
      0.87000000	      0.01278399	      0.01667072	      0.03261088
      0.88000000	      0.01270722	      0.01662059	      0.03253115
      0.89000000	      0.01257203	      0.01653194	      0.03234814
      0.90000000	      0.01237570	      0.01640234	      0.03281998
      0.91000000	      0.01219061	      0.01627923	      0.03292104
      0.92000000	      0.01193697	      0.01610899	      0.03311728
      0.93000000	      0.01164260	      0.01590912	      0.03345143
      0.94000000	      0.01139502	      0.01573905	      0.03378871
      0.95000000	      0.01112245	      0.01554967	      0.03378793
      0.96000000	      0.01084760	      0.01535635	      0.03370014
      0.97000000	      0.01055003	      0.01514426	      0.03356283
      0.98000000	      0.01041238	      0.01504513	      0.03341430
      0.99000000	      0.01036147	      0.01500831	      0.03308361
      1.00000000	      0.01051748	      0.01512087	      0.03306423
      1.01000000	      0.01073588	      0.01527706	      0.03295977
      1.02000000	      0.01093192	      0.01541592	      0.03297495
      1.03000000	      0.01106609	      0.01551022	      0.03281713
      1.04000000	      0.01120168	      0.01560496	      0.03284723
      1.05000000	      0.01133458	      0.01569726	      0.03302009
      1.06000000	      0.01144034	      0.01577032	      0.03291888
      1.07000000	      0.01144210	      0.01577154	      0.03277350
      1.08000000	      0.01163831	      0.01590618	      0.03299134
      1.09000000	      0.01195063	      0.01611820	      0.03333373
      1.10000000	      0.01249806	      0.01648323	      0.03347243
      1.11000000	      0.01322499	      0.01695582	      0.03357081
      1.12000000	      0.01403967	      0.01747027	      0.03408835
      1.13000000	      0.01449830	      0.01775332	      0.03558321
      1.14000000	      0.01484148	      0.01796221	      0.03670559
      1.15000000	      0.01531880	      0.01824876	      0.03756020
      1.16000000	      0.01569064	      0.01846891	      0.03838543
      1.17000000	      0.01568836	      0.01846758	      0.03915043
      1.18000000	      0.01569860	      0.01847360	      0.03937843
      1.19000000	      0.01582265	      0.01854644	      0.04011628
      1.20000000	      0.01613476	      0.01872847	      0.04049713
      1.21000000	      0.01638168	      0.01887124	      0.04049030
      1.22000000	      0.01657251	      0.01898083	      0.04048549
      1.23000000	      0.01674910	      0.01908169	      0.04030397
      1.24000000	      0.01699813	      0.01922302	      0.04026353
      1.25000000	      0.01722467	      0.01935069	      0.03960049
      1.26000000	      0.01733223	      0.01941102	      0.03942456
      1.27000000	      0.01735856	      0.01942575	      0.03897611
      1.28000000	      0.01743462	      0.01946827	      0.03837210
      1.29000000	      0.01746442	      0.01948490	      0.03815757
      1.30000000	      0.01730088	      0.01939345	      0.03750063
      1.31000000	      0.01688079	      0.01915656	      0.03714361
      1.32000000	      0.01650765	      0.01894365	      0.03671774
      1.33000000	      0.01623122	      0.01878437	      0.03625699
      1.34000000	      0.01589861	      0.01859091	      0.03631336
      1.35000000	      0.01566596	      0.01845439	      0.03579630
      1.36000000	      0.01537732	      0.01828359	      0.03575608
      1.37000000	      0.01518613	      0.01816957	      0.03557741
      1.38000000	      0.01487410	      0.01798194	      0.03536840
      1.39000000	      0.01474350	      0.01790282	      0.03512522
      1.40000000	      0.01453857	      0.01777796	      0.03478713
      1.41000000	      0.01432026	      0.01764398	      0.03469452
      1.42000000	      0.01402718	      0.01746249	      0.03469969
      1.43000000	      0.01373691	      0.01728087	      0.03514199
      1.44000000	      0.01331438	      0.01701303	      0.03515886
      1.45000000	      0.01292505	      0.01676244	      0.03545890
      1.46000000	      0.01242362	      0.01643407	      0.03538678
      1.47000000	      0.01195224	      0.01611928	      0.03569350
      1.48000000	      0.01141908	      0.01575566	      0.03568394
      1.49000000	      0.01107970	      0.01551976	      0.03580451
      1.50000000	      0.01071526	      0.01526238	      0.03565155
      1.51000000	      0.01058435	      0.01516887	      0.03539970
      1.52000000	      0.01057743	      0.01516391	      0.03547738
      1.53000000	      0.01065944	      0.01522258	      0.03536624
      1.54000000	      0.01077205	      0.01530278	      0.03538165
      1.55000000	      0.01083227	      0.01534549	      0.03524040
      1.56000000	      0.01093276	      0.01541650	      0.03533631
      1.57000000	      0.01099442	      0.01545992	      0.03512359
      1.58000000	      0.01117770	      0.01558825	      0.03511227
      1.59000000	      0.01126187	      0.01564683	      0.03501833
      1.60000000	      0.01145358	      0.01577945	      0.03503161
      1.61000000	      0.01177848	      0.01600169	      0.03541724
      1.62000000	      0.01235017	      0.01638542	      0.03567884
      1.63000000	      0.01312180	      0.01688954	      0.03585845
      1.64000000	      0.01398772	      0.01743791	      0.03590408
      1.65000000	      0.01451697	      0.01776475	      0.03598266
      1.66000000	      0.01514034	      0.01814216	      0.03606029
      1.67000000	      0.01574069	      0.01849835	      0.03604289
      1.68000000	      0.01619581	      0.01876387	      0.03605378
      1.69000000	      0.01649468	      0.01893621	      0.03639830
      1.70000000	      0.01649912	      0.01893876	      0.03661204
      1.71000000	      0.01640770	      0.01888621	      0.03685853
      1.72000000	      0.01643721	      0.01890319	      0.03738362
      1.73000000	      0.01656921	      0.01897894	      0.03781870
      1.74000000	      0.01648738	      0.01893202	      0.03789133
      1.75000000	      0.01623767	      0.01878810	      0.03755791
      1.76000000	      0.01603113	      0.01866823	      0.03732163
      1.77000000	      0.01576794	      0.01851436	      0.03691760
      1.78000000	      0.01572326	      0.01848810	      0.03650817
      1.79000000	      0.01570254	      0.01847592	      0.03604781
      1.80000000	      0.01565401	      0.01844735	      0.03713723
      1.81000000	      0.01567123	      0.01845749	      0.03765349
      1.82000000	      0.01559673	      0.01841357	      0.03804243
      1.83000000	      0.01536821	      0.01827817	      0.03850856
      1.84000000	      0.01512244	      0.01813143	      0.03845564
      1.85000000	      0.01487204	      0.01798069	      0.03851683
      1.86000000	      0.01456198	      0.01779227	      0.03868510
      1.87000000	      0.01415773	      0.01754357	      0.03807149
      1.88000000	      0.01381110	      0.01732747	      0.03737897
      1.89000000	      0.01344062	      0.01709349	      0.03624136
      1.90000000	      0.01294424	      0.01677488	      0.03466633
      1.91000000	      0.01260503	      0.01655362	      0.03335613
      1.92000000	      0.01212358	      0.01623441	      0.03353633
      1.93000000	      0.01181380	      0.01602566	      0.03363502
      1.94000000	      0.01162702	      0.01589847	      0.03382526
      1.95000000	      0.01129993	      0.01567325	      0.03371708
      1.96000000	      0.01107033	      0.01551320	      0.03418934
      1.97000000	      0.01076576	      0.01529831	      0.03421666
      1.98000000	      0.01052279	      0.01512469	      0.03442182
      1.99000000	      0.01032848	      0.01498440	      0.03406557
      2.00000000	      0.01015783	      0.01486010	      0.03395406
      2.01000000	      0.01016374	      0.01486442	      0.03393171
      2.02000000	      0.01015198	      0.01485581	      0.03384285
      2.03000000	      0.01031860	      0.01497723	      0.03356573
      2.04000000	      0.01051621	      0.01511996	      0.03345488
      2.05000000	      0.01077371	      0.01530395	      0.03346402
      2.06000000	      0.01108973	      0.01552679	      0.03349818
      2.07000000	      0.01132776	      0.01569254	      0.03326651
      2.08000000	      0.01147159	      0.01579184	      0.03337881
      2.09000000	      0.01143763	      0.01576845	      0.03310641
      2.10000000	      0.01151927	      0.01582463	      0.03322103
      2.11000000	      0.01150556	      0.01581521	      0.03300373
      2.12000000	      0.01143938	      0.01576966	      0.03259259
      2.13000000	      0.01147435	      0.01579374	      0.03313228
      2.14000000	      0.01155231	      0.01584731	      0.03303871
      2.15000000	      0.01178462	      0.01600585	      0.03329484
      2.16000000	      0.01215113	      0.01625284	      0.03322996
      2.17000000	      0.01278099	      0.01666876	      0.03312220
      2.18000000	      0.01334697	      0.01703383	      0.03367062
      2.19000000	      0.01375312	      0.01729106	      0.03469157
      2.20000000	      0.01432488	      0.01764682	      0.03560007
      2.21000000	      0.01482567	      0.01795264	      0.03638628
      2.22000000	      0.01508238	      0.01810740	      0.03698281
      2.23000000	      0.01492309	      0.01801153	      0.03752462
      2.24000000	      0.01501498	      0.01806690	      0.03829611
      2.25000000	      0.01540994	      0.01830297	      0.03900937
      2.26000000	      0.01604119	      0.01867409	      0.03957251
      2.27000000	      0.01653672	      0.01896033	      0.03998127
      2.28000000	      0.01701123	      0.01923043	      0.04016214
      2.29000000	      0.01729069	      0.01938775	      0.03999244
      2.30000000	      0.01758059	      0.01954960	      0.03992669
      2.31000000	      0.01772712	      0.01963090	      0.04025537
      2.32000000	      0.01780816	      0.01967572	      0.04003989
      2.33000000	      0.01786395	      0.01970651	      0.03947801
      2.34000000	      0.01771378	      0.01962351	      0.03915465
      2.35000000	      0.01777415	      0.01965692	      0.03880060
      2.36000000	      0.01755562	      0.01953571	      0.03845133
      2.37000000	      0.01738295	      0.01943940	      0.03832917
      2.38000000	      0.01713439	      0.01929991	      0.03770960
      2.39000000	      0.01686132	      0.01914551	      0.03704317
      2.40000000	      0.01655098	      0.01896850	      0.03719570
      2.41000000	      0.01720813	      0.01934140	      0.04025188
