Model Marker Errors from IK
version=1
nRows=222
nColumns=4
inDegrees=no
endheader
time	total_squared_error	marker_error_RMS	marker_error_max
      0.00000000	      0.01561116	      0.01842208	      0.03793045
      0.01000000	      0.01598371	      0.01864060	      0.03810309
      0.02000000	      0.01607686	      0.01869484	      0.03813839
      0.03000000	      0.01611708	      0.01871821	      0.03832584
      0.04000000	      0.01614085	      0.01873200	      0.03834253
      0.05000000	      0.01627725	      0.01881099	      0.03831793
      0.06000000	      0.01621605	      0.01877559	      0.03829274
      0.07000000	      0.01612831	      0.01872473	      0.03798072
      0.08000000	      0.01608416	      0.01869908	      0.03789830
      0.09000000	      0.01596739	      0.01863108	      0.03760206
      0.10000000	      0.01621394	      0.01877437	      0.03732416
      0.11000000	      0.01623871	      0.01878870	      0.03704948
      0.12000000	      0.01656723	      0.01897781	      0.03675007
      0.13000000	      0.01673237	      0.01907216	      0.03860895
      0.14000000	      0.01662816	      0.01901267	      0.03826663
      0.15000000	      0.01668217	      0.01904352	      0.03878042
      0.16000000	      0.01652582	      0.01895407	      0.03928799
      0.17000000	      0.01647084	      0.01892252	      0.04025529
      0.18000000	      0.01617557	      0.01875214	      0.04017626
      0.19000000	      0.01574125	      0.01849868	      0.04013772
      0.20000000	      0.01549035	      0.01835066	      0.03955418
      0.21000000	      0.01500205	      0.01805911	      0.03883904
      0.22000000	      0.01457696	      0.01780141	      0.03801538
      0.23000000	      0.01416039	      0.01754521	      0.03686971
      0.24000000	      0.01374447	      0.01728562	      0.03552936
      0.25000000	      0.01332983	      0.01702289	      0.03539740
      0.26000000	      0.01295296	      0.01678052	      0.03589759
      0.27000000	      0.01259610	      0.01654776	      0.03572368
      0.28000000	      0.01230361	      0.01635450	      0.03596197
      0.29000000	      0.01187369	      0.01606623	      0.03598842
      0.30000000	      0.01141056	      0.01574978	      0.03595768
      0.31000000	      0.01090911	      0.01539982	      0.03577567
      0.32000000	      0.01051834	      0.01512149	      0.03559887
      0.33000000	      0.01023952	      0.01491973	      0.03539930
      0.34000000	      0.01010688	      0.01482278	      0.03512358
      0.35000000	      0.01019520	      0.01488740	      0.03495611
      0.36000000	      0.01041645	      0.01504808	      0.03475092
      0.37000000	      0.01065742	      0.01522114	      0.03475380
      0.38000000	      0.01084663	      0.01535566	      0.03468712
      0.39000000	      0.01108983	      0.01552686	      0.03464108
      0.40000000	      0.01125245	      0.01564029	      0.03451929
      0.41000000	      0.01142904	      0.01576253	      0.03439915
      0.42000000	      0.01159796	      0.01587859	      0.03434569
      0.43000000	      0.01179096	      0.01601016	      0.03458969
      0.44000000	      0.01206041	      0.01619206	      0.03481682
      0.45000000	      0.01238546	      0.01640882	      0.03480043
      0.46000000	      0.01291614	      0.01675666	      0.03486849
      0.47000000	      0.01335183	      0.01703694	      0.03505076
      0.48000000	      0.01356617	      0.01717314	      0.03608838
      0.49000000	      0.01400358	      0.01744779	      0.03699618
      0.50000000	      0.01436038	      0.01766868	      0.03737752
      0.51000000	      0.01465383	      0.01784829	      0.03784446
      0.52000000	      0.01503299	      0.01807772	      0.03822825
      0.53000000	      0.01509101	      0.01811258	      0.03921758
      0.54000000	      0.01506419	      0.01809648	      0.03973006
      0.55000000	      0.01511478	      0.01812684	      0.04026955
      0.56000000	      0.01525701	      0.01821192	      0.04035536
      0.57000000	      0.01542680	      0.01831298	      0.04099478
      0.58000000	      0.01576187	      0.01851079	      0.04115126
      0.59000000	      0.01617588	      0.01875232	      0.04121630
      0.60000000	      0.01649930	      0.01893886	      0.04105637
      0.61000000	      0.01689087	      0.01916227	      0.04059545
      0.62000000	      0.01741954	      0.01945985	      0.04021130
      0.63000000	      0.01773095	      0.01963302	      0.03976737
      0.64000000	      0.01806078	      0.01981478	      0.04000526
      0.65000000	      0.01809831	      0.01983536	      0.03977631
      0.66000000	      0.01803853	      0.01980257	      0.03940620
      0.67000000	      0.01777389	      0.01965678	      0.03867506
      0.68000000	      0.01741983	      0.01946001	      0.03796440
      0.69000000	      0.01704033	      0.01924687	      0.03729145
      0.70000000	      0.01654094	      0.01896274	      0.03716213
      0.71000000	      0.01608310	      0.01869847	      0.03657456
      0.72000000	      0.01556286	      0.01839356	      0.03563067
      0.73000000	      0.01514291	      0.01814369	      0.03545256
      0.74000000	      0.01484696	      0.01796552	      0.03568723
      0.75000000	      0.01448557	      0.01774553	      0.03568358
      0.76000000	      0.01417073	      0.01755162	      0.03576565
      0.77000000	      0.01388776	      0.01737549	      0.03611782
      0.78000000	      0.01351874	      0.01714309	      0.03597117
      0.79000000	      0.01312375	      0.01689080	      0.03626841
      0.80000000	      0.01264182	      0.01657776	      0.03598820
      0.81000000	      0.01219063	      0.01627924	      0.03614905
      0.82000000	      0.01161128	      0.01588770	      0.03599589
      0.83000000	      0.01107975	      0.01551980	      0.03587282
      0.84000000	      0.01061668	      0.01519202	      0.03583923
      0.85000000	      0.01029439	      0.01495965	      0.03578756
      0.86000000	      0.01002290	      0.01476107	      0.03571040
      0.87000000	      0.01001431	      0.01475474	      0.03564619
      0.88000000	      0.01009945	      0.01481733	      0.03564233
      0.89000000	      0.01021130	      0.01489915	      0.03573516
      0.90000000	      0.01039816	      0.01503486	      0.03589734
      0.91000000	      0.01050162	      0.01510947	      0.03569599
      0.92000000	      0.01068260	      0.01523911	      0.03573638
      0.93000000	      0.01089529	      0.01539007	      0.03577138
      0.94000000	      0.01135024	      0.01570810	      0.03586300
      0.95000000	      0.01179033	      0.01600973	      0.03625198
      0.96000000	      0.01238505	      0.01640854	      0.03671283
      0.97000000	      0.01309423	      0.01687178	      0.03688671
      0.98000000	      0.01380233	      0.01732197	      0.03717597
      0.99000000	      0.01443764	      0.01771615	      0.03749648
      1.00000000	      0.01489792	      0.01799633	      0.03750309
      1.01000000	      0.01548718	      0.01834878	      0.03779761
      1.02000000	      0.01598747	      0.01864279	      0.03780114
      1.03000000	      0.01616701	      0.01874718	      0.03778269
      1.04000000	      0.01611769	      0.01871856	      0.03787868
      1.05000000	      0.01607479	      0.01869363	      0.03794851
      1.06000000	      0.01610253	      0.01870975	      0.03798438
      1.07000000	      0.01597537	      0.01863573	      0.03781014
      1.08000000	      0.01585911	      0.01856780	      0.03786547
      1.09000000	      0.01585685	      0.01856648	      0.03750830
      1.10000000	      0.01603766	      0.01867203	      0.03797677
      1.11000000	      0.01607115	      0.01869152	      0.03724829
      1.12000000	      0.01610197	      0.01870943	      0.03706017
      1.13000000	      0.01613677	      0.01872964	      0.03696018
      1.14000000	      0.01600996	      0.01865590	      0.03685000
      1.15000000	      0.01597254	      0.01863408	      0.03656223
      1.16000000	      0.01588687	      0.01858404	      0.03658563
      1.17000000	      0.01575210	      0.01850505	      0.03644624
      1.18000000	      0.01554848	      0.01838506	      0.03656828
      1.19000000	      0.01535950	      0.01827299	      0.03642346
      1.20000000	      0.01523365	      0.01819798	      0.03618903
      1.21000000	      0.01500589	      0.01806142	      0.03633364
      1.22000000	      0.01477603	      0.01792256	      0.03612191
      1.23000000	      0.01459658	      0.01781340	      0.03636544
      1.24000000	      0.01437450	      0.01767736	      0.03643828
      1.25000000	      0.01443514	      0.01771461	      0.03645657
      1.26000000	      0.01402204	      0.01745930	      0.03652558
      1.27000000	      0.01384490	      0.01734866	      0.03658860
      1.28000000	      0.01368402	      0.01724757	      0.03653336
      1.29000000	      0.01351889	      0.01714319	      0.03673980
      1.30000000	      0.01316640	      0.01691822	      0.03671224
      1.31000000	      0.01277151	      0.01666258	      0.03671971
      1.32000000	      0.01232290	      0.01636732	      0.03693512
      1.33000000	      0.01189071	      0.01607774	      0.03663543
      1.34000000	      0.01136769	      0.01572017	      0.03653259
      1.35000000	      0.01099540	      0.01546061	      0.03648537
      1.36000000	      0.01076176	      0.01529547	      0.03639910
      1.37000000	      0.01064899	      0.01521512	      0.03609203
      1.38000000	      0.01079357	      0.01531805	      0.03612689
      1.39000000	      0.01068603	      0.01524156	      0.03549610
      1.40000000	      0.01098465	      0.01545305	      0.03532211
      1.41000000	      0.01094867	      0.01542772	      0.03527586
      1.42000000	      0.01108866	      0.01552604	      0.03503389
      1.43000000	      0.01102872	      0.01548402	      0.03485649
      1.44000000	      0.01128329	      0.01566170	      0.03494601
      1.45000000	      0.01126691	      0.01565033	      0.03493768
      1.46000000	      0.01167787	      0.01593320	      0.03493878
      1.47000000	      0.01203280	      0.01617351	      0.03536647
      1.48000000	      0.01249584	      0.01648177	      0.03534060
      1.49000000	      0.01287555	      0.01673031	      0.03544269
      1.50000000	      0.01307790	      0.01686126	      0.03563790
      1.51000000	      0.01324263	      0.01696712	      0.03574933
      1.52000000	      0.01364512	      0.01722304	      0.03604883
      1.53000000	      0.01396570	      0.01742418	      0.03683566
      1.54000000	      0.01415452	      0.01754158	      0.03763610
      1.55000000	      0.01411018	      0.01751408	      0.03797749
      1.56000000	      0.01408520	      0.01749857	      0.03868119
      1.57000000	      0.01415909	      0.01754441	      0.03942145
      1.58000000	      0.01448646	      0.01774607	      0.04030188
      1.59000000	      0.01480722	      0.01794146	      0.04026720
      1.60000000	      0.01511754	      0.01812849	      0.03995098
      1.61000000	      0.01546987	      0.01833853	      0.04011424
      1.62000000	      0.01582672	      0.01854883	      0.03971744
      1.63000000	      0.01605409	      0.01868159	      0.03961352
      1.64000000	      0.01631119	      0.01883059	      0.03940473
      1.65000000	      0.01654143	      0.01896302	      0.03893557
      1.66000000	      0.01672817	      0.01906976	      0.03827791
      1.67000000	      0.01688269	      0.01915764	      0.03760070
      1.68000000	      0.01702731	      0.01923951	      0.03773784
      1.69000000	      0.01714956	      0.01930846	      0.03818080
      1.70000000	      0.01710500	      0.01928336	      0.03827661
      1.71000000	      0.01711598	      0.01928954	      0.03799093
      1.72000000	      0.01692121	      0.01917948	      0.03775000
      1.73000000	      0.01672728	      0.01906925	      0.03726530
      1.74000000	      0.01653932	      0.01896181	      0.03693006
      1.75000000	      0.01618918	      0.01876003	      0.03699042
      1.76000000	      0.01595253	      0.01862241	      0.03683103
      1.77000000	      0.01575703	      0.01850795	      0.03711041
      1.78000000	      0.01539393	      0.01829346	      0.03692324
      1.79000000	      0.01519855	      0.01817700	      0.03723083
      1.80000000	      0.01489000	      0.01799154	      0.03711287
      1.81000000	      0.01465520	      0.01784912	      0.03715262
      1.82000000	      0.01436638	      0.01767237	      0.03751423
      1.83000000	      0.01402084	      0.01745855	      0.03736218
      1.84000000	      0.01359584	      0.01719191	      0.03739210
      1.85000000	      0.01302179	      0.01682506	      0.03729244
      1.86000000	      0.01246614	      0.01646217	      0.03697114
      1.87000000	      0.01198164	      0.01613910	      0.03700370
      1.88000000	      0.01130399	      0.01567606	      0.03669535
      1.89000000	      0.01090415	      0.01539632	      0.03673740
      1.90000000	      0.01067784	      0.01523571	      0.03655424
      1.91000000	      0.01061247	      0.01518901	      0.03658505
      1.92000000	      0.01059867	      0.01517912	      0.03638631
      1.93000000	      0.01065010	      0.01521591	      0.03619456
      1.94000000	      0.01079270	      0.01531744	      0.03609944
      1.95000000	      0.01083528	      0.01534762	      0.03585678
      1.96000000	      0.01097993	      0.01544973	      0.03562012
      1.97000000	      0.01111385	      0.01554366	      0.03534508
      1.98000000	      0.01133864	      0.01570007	      0.03511588
      1.99000000	      0.01180778	      0.01602158	      0.03556014
      2.00000000	      0.01237450	      0.01640155	      0.03564959
      2.01000000	      0.01304789	      0.01684191	      0.03605145
      2.02000000	      0.01387496	      0.01736749	      0.03622496
      2.03000000	      0.01447630	      0.01773985	      0.03643037
      2.04000000	      0.01520607	      0.01818149	      0.03644210
      2.05000000	      0.01629299	      0.01882008	      0.03659072
      2.06000000	      0.01804580	      0.01980657	      0.04136012
      2.07000000	      0.01972415	      0.02070715	      0.05666131
      2.08000000	      0.02195140	      0.02184501	      0.07314526
      2.09000000	      0.02528901	      0.02344699	      0.09085095
      2.10000000	      0.03015675	      0.02560433	      0.10987437
      2.11000000	      0.03603070	      0.02798707	      0.12980328
      2.12000000	      0.04304248	      0.03058931	      0.15040345
      2.13000000	      0.05116442	      0.03335071	      0.17167498
      2.14000000	      0.06050828	      0.03626841	      0.19361855
      2.15000000	      0.07134157	      0.03938151	      0.21607899
      2.16000000	      0.08354965	      0.04261803	      0.23904224
      2.17000000	      0.09744546	      0.04602586	      0.26260216
      2.18000000	      0.11324606	      0.04961724	      0.28722597
      2.19000000	      0.13104868	      0.05337494	      0.31243716
      2.20000000	      0.15053957	      0.05720664	      0.33814163
      2.21000000	      0.17177754	      0.06110887	      0.36395049
