Model Marker Errors from IK
version=1
nRows=232
nColumns=4
inDegrees=no
endheader
time	total_squared_error	marker_error_RMS	marker_error_max
      0.00000000	      0.01416327	      0.01754700	      0.03647490
      0.01000000	      0.01470795	      0.01788122	      0.03678077
      0.02000000	      0.01521558	      0.01818718	      0.03711049
      0.03000000	      0.01578851	      0.01852643	      0.03726228
      0.04000000	      0.01596263	      0.01862831	      0.03739227
      0.05000000	      0.01591873	      0.01860267	      0.03757256
      0.06000000	      0.01602382	      0.01866397	      0.03765075
      0.07000000	      0.01603705	      0.01867167	      0.03775496
      0.08000000	      0.01613511	      0.01872867	      0.03804467
      0.09000000	      0.01602351	      0.01866379	      0.03793264
      0.10000000	      0.01571974	      0.01848603	      0.03793114
      0.11000000	      0.01578479	      0.01852424	      0.03767662
      0.12000000	      0.01589317	      0.01858773	      0.03736420
      0.13000000	      0.01607145	      0.01869169	      0.03724612
      0.14000000	      0.01608865	      0.01870169	      0.03680396
      0.15000000	      0.01621872	      0.01877714	      0.03654610
      0.16000000	      0.01631291	      0.01883158	      0.03667343
      0.17000000	      0.01623828	      0.01878846	      0.03691780
      0.18000000	      0.01626214	      0.01880226	      0.03783616
      0.19000000	      0.01605358	      0.01868130	      0.03785362
      0.20000000	      0.01590951	      0.01859728	      0.03747218
      0.21000000	      0.01561375	      0.01842361	      0.03691005
      0.22000000	      0.01529609	      0.01823523	      0.03623173
      0.23000000	      0.01499719	      0.01805619	      0.03587202
      0.24000000	      0.01476371	      0.01791508	      0.03566161
      0.25000000	      0.01450134	      0.01775518	      0.03605488
      0.26000000	      0.01436857	      0.01767371	      0.03601297
      0.27000000	      0.01402475	      0.01746098	      0.03622821
      0.28000000	      0.01396934	      0.01742645	      0.03662281
      0.29000000	      0.01378147	      0.01730887	      0.03628531
      0.30000000	      0.01364572	      0.01722342	      0.03671228
      0.31000000	      0.01338112	      0.01705561	      0.03670994
      0.32000000	      0.01296680	      0.01678949	      0.03668839
      0.33000000	      0.01252350	      0.01650000	      0.03676873
      0.34000000	      0.01205309	      0.01618714	      0.03667063
      0.35000000	      0.01149861	      0.01581044	      0.03627413
      0.36000000	      0.01103600	      0.01548913	      0.03604257
      0.37000000	      0.01071738	      0.01526389	      0.03554531
      0.38000000	      0.01060493	      0.01518361	      0.03544241
      0.39000000	      0.01060219	      0.01518165	      0.03493850
      0.40000000	      0.01081602	      0.01533398	      0.03484180
      0.41000000	      0.01104093	      0.01549258	      0.03449080
      0.42000000	      0.01123165	      0.01562582	      0.03429789
      0.43000000	      0.01137594	      0.01572587	      0.03383337
      0.44000000	      0.01145149	      0.01577800	      0.03380968
      0.45000000	      0.01149444	      0.01580756	      0.03385389
      0.46000000	      0.01161062	      0.01588725	      0.03387872
      0.47000000	      0.01184105	      0.01604413	      0.03427957
      0.48000000	      0.01220822	      0.01629098	      0.03480458
      0.49000000	      0.01265231	      0.01658464	      0.03514030
      0.50000000	      0.01332345	      0.01701882	      0.03537803
      0.51000000	      0.01385357	      0.01735409	      0.03633010
      0.52000000	      0.01409602	      0.01750529	      0.03690293
      0.53000000	      0.01453856	      0.01777796	      0.03753642
      0.54000000	      0.01502800	      0.01807472	      0.03808001
      0.55000000	      0.01531624	      0.01824724	      0.03856104
      0.56000000	      0.01542202	      0.01831014	      0.03860236
      0.57000000	      0.01541392	      0.01830533	      0.03928311
      0.58000000	      0.01534903	      0.01826676	      0.03972166
      0.59000000	      0.01558830	      0.01840859	      0.04051260
      0.60000000	      0.01574036	      0.01849815	      0.04053135
      0.61000000	      0.01601465	      0.01865863	      0.04070414
      0.62000000	      0.01638742	      0.01887454	      0.04043593
      0.63000000	      0.01670837	      0.01905848	      0.04008800
      0.64000000	      0.01706790	      0.01926243	      0.04027943
      0.65000000	      0.01758055	      0.01954958	      0.04032289
      0.66000000	      0.01801270	      0.01978839	      0.04019564
      0.67000000	      0.01853315	      0.02007223	      0.04053932
      0.68000000	      0.01875598	      0.02019254	      0.04102778
      0.69000000	      0.01886310	      0.02025012	      0.04107740
      0.70000000	      0.01883908	      0.02023722	      0.04091054
      0.71000000	      0.01861278	      0.02011531	      0.04032751
      0.72000000	      0.01818412	      0.01988233	      0.03961037
      0.73000000	      0.01774117	      0.01963867	      0.03828475
      0.74000000	      0.01735936	      0.01942620	      0.03764420
      0.75000000	      0.01697815	      0.01921172	      0.03707297
      0.76000000	      0.01647724	      0.01892620	      0.03675647
      0.77000000	      0.01616185	      0.01874419	      0.03685232
      0.78000000	      0.01580762	      0.01853763	      0.03670136
      0.79000000	      0.01550761	      0.01836088	      0.03670024
      0.80000000	      0.01520596	      0.01818143	      0.03700493
      0.81000000	      0.01493804	      0.01802054	      0.03718194
      0.82000000	      0.01459993	      0.01781544	      0.03737736
      0.83000000	      0.01420034	      0.01756995	      0.03747414
      0.84000000	      0.01366257	      0.01723405	      0.03742218
      0.85000000	      0.01315361	      0.01691000	      0.03764931
      0.86000000	      0.01258716	      0.01654189	      0.03751497
      0.87000000	      0.01203515	      0.01617510	      0.03750799
      0.88000000	      0.01146785	      0.01578927	      0.03735593
      0.89000000	      0.01095453	      0.01543185	      0.03708381
      0.90000000	      0.01069176	      0.01524564	      0.03689014
      0.91000000	      0.01059895	      0.01517933	      0.03655749
      0.92000000	      0.01059070	      0.01517342	      0.03627501
      0.93000000	      0.01079583	      0.01531966	      0.03622902
      0.94000000	      0.01086082	      0.01536570	      0.03596185
      0.95000000	      0.01096453	      0.01543889	      0.03589222
      0.96000000	      0.01108755	      0.01552526	      0.03565868
      0.97000000	      0.01122032	      0.01561794	      0.03545455
      0.98000000	      0.01149575	      0.01580847	      0.03587304
      0.99000000	      0.01189659	      0.01608172	      0.03624990
      1.00000000	      0.01252862	      0.01650337	      0.03663851
      1.01000000	      0.01306839	      0.01685513	      0.03686409
      1.02000000	      0.01359706	      0.01719268	      0.03708322
      1.03000000	      0.01417833	      0.01755633	      0.03729499
      1.04000000	      0.01489564	      0.01799495	      0.03759483
      1.05000000	      0.01558963	      0.01840938	      0.03766771
      1.06000000	      0.01630866	      0.01882913	      0.03789012
      1.07000000	      0.01651233	      0.01894634	      0.03774879
      1.08000000	      0.01654538	      0.01896529	      0.03778087
      1.09000000	      0.01624552	      0.01879264	      0.03782390
      1.10000000	      0.01631391	      0.01883216	      0.03792218
      1.11000000	      0.01643811	      0.01890371	      0.03792585
      1.12000000	      0.01648730	      0.01893197	      0.03812172
      1.13000000	      0.01641115	      0.01888820	      0.03766720
      1.14000000	      0.01634482	      0.01884999	      0.03757071
      1.15000000	      0.01642491	      0.01889612	      0.03719850
      1.16000000	      0.01651199	      0.01894614	      0.03695683
      1.17000000	      0.01662274	      0.01900958	      0.03700678
      1.18000000	      0.01662686	      0.01901193	      0.03783584
      1.19000000	      0.01663598	      0.01901714	      0.03839134
      1.20000000	      0.01650363	      0.01894134	      0.03843902
      1.21000000	      0.01645048	      0.01891082	      0.03841621
      1.22000000	      0.01627652	      0.01881057	      0.03831396
      1.23000000	      0.01604222	      0.01867469	      0.03808312
      1.24000000	      0.01572265	      0.01848775	      0.03712368
      1.25000000	      0.01543940	      0.01832046	      0.03729023
      1.26000000	      0.01521750	      0.01818833	      0.03745484
      1.27000000	      0.01478276	      0.01792664	      0.03644504
      1.28000000	      0.01442426	      0.01770793	      0.03631712
      1.29000000	      0.01390891	      0.01738872	      0.03646234
      1.30000000	      0.01364841	      0.01722511	      0.03661208
      1.31000000	      0.01347743	      0.01711688	      0.03683605
      1.32000000	      0.01334969	      0.01703557	      0.03677269
      1.33000000	      0.01320522	      0.01694314	      0.03691519
      1.34000000	      0.01301417	      0.01682013	      0.03740030
      1.35000000	      0.01274225	      0.01664348	      0.03725387
      1.36000000	      0.01240319	      0.01642055	      0.03761106
      1.37000000	      0.01198689	      0.01614263	      0.03746188
      1.38000000	      0.01167959	      0.01593437	      0.03753602
      1.39000000	      0.01133805	      0.01569966	      0.03750252
      1.40000000	      0.01122310	      0.01561987	      0.03750250
      1.41000000	      0.01119374	      0.01559943	      0.03763222
      1.42000000	      0.01117419	      0.01558580	      0.03746109
      1.43000000	      0.01123363	      0.01562720	      0.03733154
      1.44000000	      0.01133062	      0.01569452	      0.03733978
      1.45000000	      0.01148900	      0.01580382	      0.03728524
      1.46000000	      0.01145953	      0.01578354	      0.03707154
      1.47000000	      0.01155250	      0.01584744	      0.03671186
      1.48000000	      0.01158088	      0.01586689	      0.03669602
      1.49000000	      0.01172211	      0.01596335	      0.03652444
      1.50000000	      0.01179473	      0.01601272	      0.03649750
      1.51000000	      0.01195743	      0.01612279	      0.03621859
      1.52000000	      0.01205146	      0.01618605	      0.03633210
      1.53000000	      0.01219313	      0.01628091	      0.03625507
      1.54000000	      0.01235990	      0.01639187	      0.03637144
      1.55000000	      0.01264620	      0.01658063	      0.03615773
      1.56000000	      0.01293226	      0.01676711	      0.03592352
      1.57000000	      0.01337658	      0.01705272	      0.03617053
      1.58000000	      0.01382673	      0.01733727	      0.03640733
      1.59000000	      0.01411407	      0.01751650	      0.03660921
      1.60000000	      0.01455498	      0.01778799	      0.03752036
      1.61000000	      0.01502098	      0.01807050	      0.03833793
      1.62000000	      0.01550308	      0.01835820	      0.03879066
      1.63000000	      0.01560437	      0.01841807	      0.03947831
      1.64000000	      0.01587656	      0.01857801	      0.04030908
      1.65000000	      0.01582425	      0.01854738	      0.04099492
      1.66000000	      0.01609669	      0.01870636	      0.04144609
      1.67000000	      0.01643367	      0.01890116	      0.04154412
      1.68000000	      0.01679554	      0.01910813	      0.04223684
      1.69000000	      0.01721535	      0.01934546	      0.04213974
      1.70000000	      0.01766222	      0.01959493	      0.04215903
      1.71000000	      0.01802617	      0.01979579	      0.04130668
      1.72000000	      0.01846336	      0.02003441	      0.04074155
      1.73000000	      0.01895367	      0.02029868	      0.04079121
      1.74000000	      0.01913091	      0.02039336	      0.04078600
      1.75000000	      0.01928236	      0.02047393	      0.04097198
      1.76000000	      0.01932801	      0.02049815	      0.04091400
      1.77000000	      0.01908896	      0.02037099	      0.04066297
      1.78000000	      0.01875213	      0.02019047	      0.04007126
      1.79000000	      0.01833392	      0.01996406	      0.03969276
      1.80000000	      0.01788172	      0.01971631	      0.03896971
      1.81000000	      0.01741041	      0.01945474	      0.03843787
      1.82000000	      0.01689582	      0.01916508	      0.03793591
      1.83000000	      0.01646934	      0.01892166	      0.03737644
      1.84000000	      0.01620969	      0.01877191	      0.03705150
      1.85000000	      0.01600480	      0.01865290	      0.03722962
      1.86000000	      0.01581571	      0.01854238	      0.03727783
      1.87000000	      0.01566271	      0.01845247	      0.03756975
      1.88000000	      0.01549147	      0.01835132	      0.03766374
      1.89000000	      0.01544682	      0.01832486	      0.03784090
      1.90000000	      0.01526184	      0.01821480	      0.03790807
      1.91000000	      0.01504873	      0.01808719	      0.03823102
      1.92000000	      0.01475145	      0.01790764	      0.03804762
      1.93000000	      0.01427452	      0.01761578	      0.03808527
      1.94000000	      0.01375645	      0.01729315	      0.03817635
      1.95000000	      0.01314101	      0.01690189	      0.03811053
      1.96000000	      0.01256995	      0.01653057	      0.03807618
      1.97000000	      0.01196460	      0.01612761	      0.03765966
      1.98000000	      0.01161269	      0.01588867	      0.03734076
      1.99000000	      0.01143005	      0.01576322	      0.03733107
      2.00000000	      0.01131824	      0.01568594	      0.03710179
      2.01000000	      0.01133180	      0.01569534	      0.03682628
      2.02000000	      0.01131874	      0.01568628	      0.03690318
      2.03000000	      0.01142868	      0.01576228	      0.03680374
      2.04000000	      0.01148045	      0.01579795	      0.03638890
      2.05000000	      0.01154638	      0.01584324	      0.03666890
      2.06000000	      0.01181326	      0.01602529	      0.03647939
      2.07000000	      0.01208571	      0.01620903	      0.03683277
      2.08000000	      0.01249363	      0.01648031	      0.03726890
      2.09000000	      0.01296879	      0.01679078	      0.03734920
      2.10000000	      0.01368979	      0.01725121	      0.03758295
      2.11000000	      0.01425100	      0.01760126	      0.03761177
      2.12000000	      0.01474809	      0.01790560	      0.03774182
      2.13000000	      0.01537812	      0.01828406	      0.03740543
      2.14000000	      0.01606325	      0.01868692	      0.03752881
      2.15000000	      0.01644906	      0.01891000	      0.03741846
      2.16000000	      0.01644269	      0.01890634	      0.03723187
      2.17000000	      0.01633966	      0.01884701	      0.03687794
      2.18000000	      0.01649925	      0.01893883	      0.03789460
      2.19000000	      0.01678009	      0.01909934	      0.03773962
      2.20000000	      0.01702070	      0.01923578	      0.03770562
      2.21000000	      0.01723689	      0.01935756	      0.03826355
      2.22000000	      0.01741532	      0.01945749	      0.03874166
      2.23000000	      0.01738080	      0.01943820	      0.03891058
      2.24000000	      0.01739113	      0.01944397	      0.03873184
      2.25000000	      0.01728097	      0.01938230	      0.03839454
      2.26000000	      0.01715052	      0.01930900	      0.03749330
      2.27000000	      0.01696367	      0.01920353	      0.03780543
      2.28000000	      0.01677397	      0.01909585	      0.03771041
      2.29000000	      0.01659592	      0.01899423	      0.03756588
      2.30000000	      0.01625784	      0.01879977	      0.03731963
      2.31000000	      0.01599101	      0.01864486	      0.03675597
