Model Marker Errors from IK
version=1
nRows=232
nColumns=4
inDegrees=no
endheader
time	total_squared_error	marker_error_RMS	marker_error_max
      0.00000000	      0.01476428	      0.01791543	      0.03588291
      0.01000000	      0.01528266	      0.01822723	      0.03609077
      0.02000000	      0.01543511	      0.01831791	      0.03675752
      0.03000000	      0.01554058	      0.01838039	      0.03702842
      0.04000000	      0.01575781	      0.01850841	      0.03747638
      0.05000000	      0.01592006	      0.01860344	      0.03766399
      0.06000000	      0.01594532	      0.01861820	      0.03783374
      0.07000000	      0.01589757	      0.01859030	      0.03770381
      0.08000000	      0.01591073	      0.01859800	      0.03764015
      0.09000000	      0.01585500	      0.01856539	      0.03728713
      0.10000000	      0.01615215	      0.01873856	      0.03661185
      0.11000000	      0.01616126	      0.01874385	      0.03655412
      0.12000000	      0.01622828	      0.01878267	      0.03575649
      0.13000000	      0.01615184	      0.01873838	      0.03645920
      0.14000000	      0.01617022	      0.01874904	      0.03713472
      0.15000000	      0.01622620	      0.01878147	      0.03825112
      0.16000000	      0.01607460	      0.01869353	      0.03853114
      0.17000000	      0.01587101	      0.01857477	      0.03888424
      0.18000000	      0.01563966	      0.01843889	      0.03912073
      0.19000000	      0.01537852	      0.01828430	      0.03888937
      0.20000000	      0.01498948	      0.01805154	      0.03856730
      0.21000000	      0.01460741	      0.01782000	      0.03773333
      0.22000000	      0.01422494	      0.01758516	      0.03670539
      0.23000000	      0.01397419	      0.01742948	      0.03561810
      0.24000000	      0.01361041	      0.01720112	      0.03436380
      0.25000000	      0.01339138	      0.01706215	      0.03415906
      0.26000000	      0.01333236	      0.01702451	      0.03397135
      0.27000000	      0.01335331	      0.01703788	      0.03484446
      0.28000000	      0.01323141	      0.01695993	      0.03512705
      0.29000000	      0.01294238	      0.01677367	      0.03534533
      0.30000000	      0.01252309	      0.01649973	      0.03541317
      0.31000000	      0.01205256	      0.01618679	      0.03561375
      0.32000000	      0.01154253	      0.01584060	      0.03568277
      0.33000000	      0.01120725	      0.01560884	      0.03551276
      0.34000000	      0.01097276	      0.01544469	      0.03546788
      0.35000000	      0.01091084	      0.01540105	      0.03527137
      0.36000000	      0.01107201	      0.01551438	      0.03549052
      0.37000000	      0.01119773	      0.01560221	      0.03538831
      0.38000000	      0.01143795	      0.01576868	      0.03527568
      0.39000000	      0.01158155	      0.01586735	      0.03507556
      0.40000000	      0.01170839	      0.01595401	      0.03526907
      0.41000000	      0.01175287	      0.01598428	      0.03529770
      0.42000000	      0.01177283	      0.01599785	      0.03529262
      0.43000000	      0.01181543	      0.01602676	      0.03542501
      0.44000000	      0.01183912	      0.01604282	      0.03546052
      0.45000000	      0.01205433	      0.01618798	      0.03574776
      0.46000000	      0.01227656	      0.01633651	      0.03621789
      0.47000000	      0.01257854	      0.01653622	      0.03626950
      0.48000000	      0.01293851	      0.01677117	      0.03629531
      0.49000000	      0.01312339	      0.01689056	      0.03640213
      0.50000000	      0.01329480	      0.01700051	      0.03661577
      0.51000000	      0.01386804	      0.01736315	      0.03733795
      0.52000000	      0.01431274	      0.01763934	      0.03777694
      0.53000000	      0.01460646	      0.01781942	      0.03838028
      0.54000000	      0.01485388	      0.01796971	      0.03881870
      0.55000000	      0.01506404	      0.01809638	      0.03933034
      0.56000000	      0.01509834	      0.01811698	      0.04031607
      0.57000000	      0.01528788	      0.01823034	      0.04086290
      0.58000000	      0.01538089	      0.01828571	      0.04117628
      0.59000000	      0.01559422	      0.01841208	      0.04073207
      0.60000000	      0.01594796	      0.01861974	      0.04068820
      0.61000000	      0.01624441	      0.01879200	      0.04083953
      0.62000000	      0.01647615	      0.01892557	      0.04038561
      0.63000000	      0.01682651	      0.01912574	      0.04038251
      0.64000000	      0.01722504	      0.01935090	      0.04048881
      0.65000000	      0.01765668	      0.01959186	      0.04081197
      0.66000000	      0.01808957	      0.01983057	      0.04036084
      0.67000000	      0.01832841	      0.01996105	      0.04011297
      0.68000000	      0.01844127	      0.02002241	      0.04044715
      0.69000000	      0.01825808	      0.01992272	      0.03980517
      0.70000000	      0.01801543	      0.01978989	      0.03913467
      0.71000000	      0.01769616	      0.01961375	      0.03897070
      0.72000000	      0.01732208	      0.01940533	      0.03831097
      0.73000000	      0.01688885	      0.01916113	      0.03750322
      0.74000000	      0.01629531	      0.01882142	      0.03714786
      0.75000000	      0.01569688	      0.01847259	      0.03665383
      0.76000000	      0.01539627	      0.01829485	      0.03686124
      0.77000000	      0.01493644	      0.01801958	      0.03688576
      0.78000000	      0.01465937	      0.01785167	      0.03694722
      0.79000000	      0.01435724	      0.01766674	      0.03704817
      0.80000000	      0.01409669	      0.01750571	      0.03699721
      0.81000000	      0.01383352	      0.01734153	      0.03714031
      0.82000000	      0.01354415	      0.01715920	      0.03729167
      0.83000000	      0.01314560	      0.01690485	      0.03750305
      0.84000000	      0.01270446	      0.01661878	      0.03753986
      0.85000000	      0.01220070	      0.01628596	      0.03752978
      0.86000000	      0.01166997	      0.01592781	      0.03760185
      0.87000000	      0.01118680	      0.01559460	      0.03772396
      0.88000000	      0.01080353	      0.01532512	      0.03761743
      0.89000000	      0.01055048	      0.01514458	      0.03766429
      0.90000000	      0.01041647	      0.01504809	      0.03751584
      0.91000000	      0.01047320	      0.01508901	      0.03742475
      0.92000000	      0.01052016	      0.01512280	      0.03730305
      0.93000000	      0.01063135	      0.01520251	      0.03729466
      0.94000000	      0.01080514	      0.01532626	      0.03710288
      0.95000000	      0.01097362	      0.01544529	      0.03696413
      0.96000000	      0.01133153	      0.01569515	      0.03692218
      0.97000000	      0.01161612	      0.01589101	      0.03697971
      0.98000000	      0.01207010	      0.01619856	      0.03732906
      0.99000000	      0.01258758	      0.01654216	      0.03760357
      1.00000000	      0.01315187	      0.01690888	      0.03782874
      1.01000000	      0.01381353	      0.01732900	      0.03807642
      1.02000000	      0.01432086	      0.01764435	      0.03821981
      1.03000000	      0.01482336	      0.01795124	      0.03824495
      1.04000000	      0.01541415	      0.01830547	      0.03839998
      1.05000000	      0.01601780	      0.01866047	      0.03846018
      1.06000000	      0.01649745	      0.01893780	      0.03858083
      1.07000000	      0.01661107	      0.01900290	      0.03869690
      1.08000000	      0.01662535	      0.01901107	      0.03884129
      1.09000000	      0.01660676	      0.01900043	      0.03872680
      1.10000000	      0.01676059	      0.01908823	      0.03901507
      1.11000000	      0.01679529	      0.01910798	      0.03895883
      1.12000000	      0.01662255	      0.01900947	      0.03897727
      1.13000000	      0.01659859	      0.01899576	      0.03878752
      1.14000000	      0.01677740	      0.01909780	      0.03862371
      1.15000000	      0.01707984	      0.01926917	      0.03842207
      1.16000000	      0.01753790	      0.01952585	      0.03834779
      1.17000000	      0.01766610	      0.01959708	      0.03919531
      1.18000000	      0.01782250	      0.01968364	      0.04039040
      1.19000000	      0.01802713	      0.01979632	      0.04121332
      1.20000000	      0.01790538	      0.01972935	      0.04160449
      1.21000000	      0.01784043	      0.01969354	      0.04167817
      1.22000000	      0.01758342	      0.01955117	      0.04191218
      1.23000000	      0.01726947	      0.01937584	      0.04169601
      1.24000000	      0.01692019	      0.01917890	      0.04130808
      1.25000000	      0.01637794	      0.01886908	      0.04061148
      1.26000000	      0.01597711	      0.01863675	      0.03998024
      1.27000000	      0.01532911	      0.01825490	      0.03758512
      1.28000000	      0.01484031	      0.01796150	      0.03667182
      1.29000000	      0.01440740	      0.01769758	      0.03656156
      1.30000000	      0.01389646	      0.01738094	      0.03668972
      1.31000000	      0.01365215	      0.01722747	      0.03667164
      1.32000000	      0.01335019	      0.01703589	      0.03673686
      1.33000000	      0.01294820	      0.01677744	      0.03681146
      1.34000000	      0.01257260	      0.01653232	      0.03691860
      1.35000000	      0.01214172	      0.01624655	      0.03703943
      1.36000000	      0.01152207	      0.01582655	      0.03677187
      1.37000000	      0.01106212	      0.01550745	      0.03687805
      1.38000000	      0.01062845	      0.01520043	      0.03659092
      1.39000000	      0.01030898	      0.01497025	      0.03643456
      1.40000000	      0.01017516	      0.01487277	      0.03623349
      1.41000000	      0.01011890	      0.01483159	      0.03603866
      1.42000000	      0.01016834	      0.01486778	      0.03590591
      1.43000000	      0.01034339	      0.01499521	      0.03567307
      1.44000000	      0.01048786	      0.01509957	      0.03562618
      1.45000000	      0.01063075	      0.01520208	      0.03554442
      1.46000000	      0.01067793	      0.01523578	      0.03569249
      1.47000000	      0.01080669	      0.01532736	      0.03566159
      1.48000000	      0.01090350	      0.01539586	      0.03558727
      1.49000000	      0.01101412	      0.01547376	      0.03551080
      1.50000000	      0.01103270	      0.01548681	      0.03551437
      1.51000000	      0.01128197	      0.01566078	      0.03532420
      1.52000000	      0.01131872	      0.01568627	      0.03541548
      1.53000000	      0.01153670	      0.01583660	      0.03540533
      1.54000000	      0.01197775	      0.01613648	      0.03529629
      1.55000000	      0.01243420	      0.01644107	      0.03546682
      1.56000000	      0.01286657	      0.01672448	      0.03574965
      1.57000000	      0.01319651	      0.01693755	      0.03628400
      1.58000000	      0.01371061	      0.01726432	      0.03685585
      1.59000000	      0.01416707	      0.01754935	      0.03755021
      1.60000000	      0.01441414	      0.01770172	      0.03815248
      1.61000000	      0.01449620	      0.01775204	      0.03854605
      1.62000000	      0.01449126	      0.01774901	      0.03921201
      1.63000000	      0.01464860	      0.01784511	      0.04028682
      1.64000000	      0.01479532	      0.01793425	      0.04099395
      1.65000000	      0.01491230	      0.01800501	      0.04148375
      1.66000000	      0.01512761	      0.01813453	      0.04155430
      1.67000000	      0.01534429	      0.01826394	      0.04160576
      1.68000000	      0.01574593	      0.01850143	      0.04087767
      1.69000000	      0.01608451	      0.01869929	      0.04091009
      1.70000000	      0.01653777	      0.01896093	      0.04007706
      1.71000000	      0.01698043	      0.01921301	      0.03967064
      1.72000000	      0.01748086	      0.01949407	      0.03949698
      1.73000000	      0.01780286	      0.01967279	      0.03944735
      1.74000000	      0.01797481	      0.01976757	      0.03957930
      1.75000000	      0.01807327	      0.01982163	      0.03953021
      1.76000000	      0.01810500	      0.01983903	      0.03943102
      1.77000000	      0.01773066	      0.01963286	      0.03936127
      1.78000000	      0.01760135	      0.01956114	      0.03857024
      1.79000000	      0.01720764	      0.01934113	      0.03799604
      1.80000000	      0.01672697	      0.01906908	      0.03765944
      1.81000000	      0.01638833	      0.01887506	      0.03755974
      1.82000000	      0.01604518	      0.01867641	      0.03680334
      1.83000000	      0.01561721	      0.01842565	      0.03664540
      1.84000000	      0.01536527	      0.01827642	      0.03669618
      1.85000000	      0.01511488	      0.01812689	      0.03680616
      1.86000000	      0.01474654	      0.01790466	      0.03716257
      1.87000000	      0.01458309	      0.01780516	      0.03725178
      1.88000000	      0.01433019	      0.01765010	      0.03758281
      1.89000000	      0.01397194	      0.01742807	      0.03763897
      1.90000000	      0.01368991	      0.01725128	      0.03800693
      1.91000000	      0.01314818	      0.01690651	      0.03778683
      1.92000000	      0.01278135	      0.01666900	      0.03813487
      1.93000000	      0.01216608	      0.01626284	      0.03792631
      1.94000000	      0.01154065	      0.01583931	      0.03753609
      1.95000000	      0.01117291	      0.01558491	      0.03754656
      1.96000000	      0.01082786	      0.01534237	      0.03708749
      1.97000000	      0.01084266	      0.01535285	      0.03690801
      1.98000000	      0.01089884	      0.01539257	      0.03646746
      1.99000000	      0.01093936	      0.01542116	      0.03639817
      2.00000000	      0.01103671	      0.01548963	      0.03624635
      2.01000000	      0.01112112	      0.01554875	      0.03567792
      2.02000000	      0.01126940	      0.01565206	      0.03577799
      2.03000000	      0.01142206	      0.01575772	      0.03573376
      2.04000000	      0.01171237	      0.01595672	      0.03583644
      2.05000000	      0.01215908	      0.01625816	      0.03592637
      2.06000000	      0.01268513	      0.01660613	      0.03628839
      2.07000000	      0.01333319	      0.01702504	      0.03648916
      2.08000000	      0.01386775	      0.01736297	      0.03670184
      2.09000000	      0.01434167	      0.01765717	      0.03680722
      2.10000000	      0.01501823	      0.01806885	      0.03682615
      2.11000000	      0.01584812	      0.01856137	      0.03702255
      2.12000000	      0.01636606	      0.01886224	      0.03662850
      2.13000000	      0.01657745	      0.01898366	      0.03647309
      2.14000000	      0.01669693	      0.01905195	      0.03681780
      2.15000000	      0.01671245	      0.01906080	      0.03693694
      2.16000000	      0.01695904	      0.01920090	      0.03778854
      2.17000000	      0.01712840	      0.01929654	      0.03857486
      2.18000000	      0.01729797	      0.01939182	      0.03930272
      2.19000000	      0.01743187	      0.01946673	      0.03977189
      2.20000000	      0.01753334	      0.01952331	      0.03930818
      2.21000000	      0.01742992	      0.01946564	      0.03911894
      2.22000000	      0.01744840	      0.01947596	      0.03833256
      2.23000000	      0.01763537	      0.01958003	      0.03859309
      2.24000000	      0.01774495	      0.01964077	      0.03907472
      2.25000000	      0.01775495	      0.01964630	      0.03996843
      2.26000000	      0.01768315	      0.01960654	      0.04049916
      2.27000000	      0.01766136	      0.01959445	      0.04088289
      2.28000000	      0.01749099	      0.01949972	      0.04098923
      2.29000000	      0.01725713	      0.01936892	      0.04106361
      2.30000000	      0.01700263	      0.01922556	      0.04124371
      2.31000000	      0.01671475	      0.01906211	      0.04084282
